TimeEDT,TemperatureF,Dew PointF,Humidity,Sea Level PressureIn,VisibilityMPH,Wind Direction,Wind SpeedMPH,Gust SpeedMPH,PrecipitationIn,Events,Conditions,WindDirDegrees,DateUTC
12:51 AM,75.0,64.0,69,29.97,10.0,WSW,4.6,16.1,N/A,,Clear,250,2014-07-01 04:51:00<br />
1:51 AM,75.0,60.1,60,29.96,10.0,Variable,6.9,-,N/A,,Clear,0,2014-07-01 05:51:00<br />
2:51 AM,73.9,63.0,68,29.94,10.0,West,8.1,-,N/A,,Clear,260,2014-07-01 06:51:00<br />
3:51 AM,73.0,64.9,76,29.92,10.0,WSW,3.5,-,N/A,,Clear,250,2014-07-01 07:51:00<br />
4:51 AM,73.0,64.9,76,29.93,10.0,WSW,5.8,-,N/A,,Clear,250,2014-07-01 08:51:00<br />
5:51 AM,72.0,66.0,81,29.93,10.0,Calm,Calm,-,N/A,,Clear,0,2014-07-01 09:51:00<br />
6:51 AM,73.9,66.0,76,29.94,10.0,North,-9999.0,-,N/A,,Clear,0,2014-07-01 10:51:00<br />
7:51 AM,75.0,66.0,73,29.95,10.0,North,-9999.0,-,N/A,,Mostly Cloudy,0,2014-07-01 11:51:00<br />
8:51 AM,75.9,66.9,74,29.93,10.0,North,-9999.0,-,N/A,,Clear,0,2014-07-01 12:51:00<br />
9:51 AM,79.0,66.9,66,29.91,10.0,Calm,Calm,-,N/A,,Clear,0,2014-07-01 13:51:00<br />
10:51 AM,82.0,69.1,65,29.90,10.0,Variable,3.5,-,N/A,,Clear,0,2014-07-01 14:51:00<br />
11:51 AM,86.0,69.1,57,29.88,10.0,Variable,4.6,-,N/A,,Partly Cloudy,0,2014-07-01 15:51:00<br />
12:51 PM,87.1,70.0,57,29.86,10.0,Variable,5.8,-,N/A,,Partly Cloudy,0,2014-07-01 16:51:00<br />
1:51 PM,88.0,70.0,55,29.85,10.0,South,6.9,-,N/A,,Mostly Cloudy,170,2014-07-01 17:51:00<br />
2:51 PM,84.9,69.1,59,29.85,10.0,South,5.8,-,N/A,,Mostly Cloudy,180,2014-07-01 18:51:00<br />
3:51 PM,86.0,69.1,57,29.84,10.0,South,5.8,-,N/A,,Partly Cloudy,170,2014-07-01 19:51:00<br />
4:51 PM,84.0,70.0,63,29.83,10.0,Variable,4.6,-,N/A,,Mostly Cloudy,0,2014-07-01 20:51:00<br />
5:51 PM,84.9,69.1,59,29.82,10.0,Variable,4.6,-,N/A,,Partly Cloudy,0,2014-07-01 21:51:00<br />
6:51 PM,84.0,69.1,61,29.83,10.0,Variable,4.6,-,N/A,,Mostly Cloudy,0,2014-07-01 22:51:00<br />
7:51 PM,82.9,69.1,63,29.83,10.0,South,6.9,-,N/A,,Clear,180,2014-07-01 23:51:00<br />
8:51 PM,82.0,66.9,60,29.85,10.0,Variable,6.9,-,N/A,,Clear,0,2014-07-02 00:51:00<br />
9:51 PM,81.0,66.0,60,29.86,10.0,North,-9999.0,-,N/A,,Clear,0,2014-07-02 01:51:00<br />
10:51 PM,80.1,66.0,62,29.85,10.0,Variable,5.8,-,N/A,,Clear,0,2014-07-02 02:51:00<br />
11:51 PM,79.0,66.0,64,29.86,10.0,Variable,5.8,-,N/A,,Clear,0,2014-07-02 03:51:00<br />
12:51 AM,79.0,66.0,64,29.85,10.0,Variable,5.8,19.6,N/A,,Clear,0,2014-07-02 04:51:00<br />
1:51 AM,78.1,66.0,66,29.86,10.0,Variable,4.6,-,N/A,,Clear,0,2014-07-02 05:51:00<br />
2:51 AM,78.1,66.0,66,29.86,10.0,Variable,5.8,-,N/A,,Clear,0,2014-07-02 06:51:00<br />
3:51 AM,77.0,66.9,71,29.87,10.0,Variable,4.6,-,N/A,,Clear,0,2014-07-02 07:51:00<br />
4:51 AM,77.0,66.9,71,29.87,10.0,Variable,4.6,-,N/A,,Clear,0,2014-07-02 08:51:00<br />
5:51 AM,77.0,68.0,74,29.88,10.0,Calm,Calm,-,N/A,,Overcast,0,2014-07-02 09:51:00<br />
6:51 AM,77.0,69.1,76,29.89,10.0,Calm,Calm,-,N/A,,Clear,0,2014-07-02 10:51:00<br />
7:51 AM,79.0,70.0,74,29.88,10.0,Calm,Calm,-,N/A,,Clear,0,2014-07-02 11:51:00<br />
8:51 AM,81.0,71.1,72,29.89,10.0,Calm,Calm,-,N/A,,Partly Cloudy,0,2014-07-02 12:51:00<br />
9:51 AM,82.9,72.0,69,29.88,9.0,Calm,Calm,-,N/A,,Clear,0,2014-07-02 13:51:00<br />
10:51 AM,86.0,72.0,63,29.88,9.0,Calm,Calm,-,N/A,,Clear,0,2014-07-02 14:51:00<br />
11:51 AM,89.1,73.0,59,29.89,9.0,Variable,3.5,-,N/A,,Clear,0,2014-07-02 15:51:00<br />
12:51 PM,88.0,73.0,61,29.88,9.0,Variable,4.6,-,N/A,,Clear,0,2014-07-02 16:51:00<br />
1:51 PM,90.0,72.0,55,29.86,9.0,Variable,3.5,-,N/A,,Clear,0,2014-07-02 17:51:00<br />
2:51 PM,89.1,70.0,53,29.85,9.0,North,-9999.0,-,N/A,,Clear,0,2014-07-02 18:51:00<br />
3:51 PM,88.0,70.0,55,29.83,9.0,South,11.5,25.3,N/A,,Clear,190,2014-07-02 19:51:00<br />
4:51 PM,86.0,71.1,61,29.83,9.0,SSW,8.1,-,N/A,,Clear,200,2014-07-02 20:51:00<br />
5:35 PM,80.1,73.9,81,29.88,2.5,Calm,Calm,-,0.02,Rain,Light Rain,0,2014-07-02 21:35:00<br />
5:42 PM,79.0,75.0,88,29.89,1.2,North,-9999.0,-,0.06,Rain,Rain,0,2014-07-02 21:42:00<br />
5:49 PM,77.0,71.6,83,29.88,3.0,NE,12.7,24.2,0.06,Rain,Light Rain,40,2014-07-02 21:49:00<br />
5:51 PM,77.0,72.0,84,29.86,5.0,NNE,11.5,24.2,0.06,Rain,Light Rain,20,2014-07-02 21:51:00<br />
6:26 PM,73.9,71.1,91,29.94,1.8,ENE,8.1,-,0.05,Rain,Heavy Rain,70,2014-07-02 22:26:00<br />
6:30 PM,73.9,71.1,91,29.94,0.8,ENE,11.5,-,0.11,Rain,Heavy Rain,60,2014-07-02 22:30:00<br />
6:44 PM,73.9,71.1,91,29.93,1.0,ENE,11.5,17.3,0.34,Rain,Heavy Rain,70,2014-07-02 22:44:00<br />
6:51 PM,73.9,72.0,93,29.90,1.8,Variable,6.9,17.3,0.37,Rain,Light Rain,0,2014-07-02 22:51:00<br />
6:54 PM,73.9,72.0,93,29.93,3.0,ENE,8.1,-,0.00,Rain,Light Rain,60,2014-07-02 22:54:00<br />
7:06 PM,75.0,72.0,90,29.94,5.0,Variable,5.8,-,0.00,,Overcast,0,2014-07-02 23:06:00<br />
7:24 PM,73.9,72.0,93,29.96,1.8,East,4.6,-,0.01,Rain,Heavy Rain,90,2014-07-02 23:24:00<br />
7:39 PM,73.9,72.0,93,30.00,0.5,SSE,3.5,-,0.23,Fog-Rain,Heavy Rain,160,2014-07-02 23:39:00<br />
7:51 PM,73.9,72.0,93,29.95,1.0,Variable,3.5,-,0.41,Rain,Rain,0,2014-07-02 23:51:00<br />
8:05 PM,73.9,72.0,93,29.99,3.0,Calm,Calm,-,0.03,Rain,Light Rain,0,2014-07-03 00:05:00<br />
8:51 PM,73.0,71.1,93,29.92,7.0,Calm,Calm,-,0.05,,Scattered Clouds,0,2014-07-03 00:51:00<br />
9:51 PM,73.0,71.1,93,29.95,4.0,WSW,4.6,-,0.01,Rain,Light Rain,250,2014-07-03 01:51:00<br />
10:51 PM,73.0,71.1,93,29.91,4.0,SSE,4.6,-,0.06,,Scattered Clouds,150,2014-07-03 02:51:00<br />
11:51 PM,73.0,71.1,93,29.92,4.0,Calm,Calm,-,N/A,,Clear,0,2014-07-03 03:51:00<br />
12:51 AM,73.0,71.1,93,29.92,4.0,WNW,3.5,-,N/A,,Clear,290,2014-07-03 04:51:00<br />
1:51 AM,73.0,70.0,90,29.92,8.0,Calm,Calm,-,N/A,,Clear,0,2014-07-03 05:51:00<br />
2:51 AM,73.0,70.0,90,29.91,7.0,Calm,Calm,-,N/A,,Clear,0,2014-07-03 06:51:00<br />
3:51 AM,73.0,71.1,93,29.91,6.0,Calm,Calm,-,N/A,,Partly Cloudy,0,2014-07-03 07:51:00<br />
4:51 AM,73.0,71.1,93,29.91,2.5,Calm,Calm,-,0.01,Rain,Rain,0,2014-07-03 08:51:00<br />
5:35 AM,73.0,71.1,93,29.95,3.0,Calm,Calm,-,0.03,,Scattered Clouds,0,2014-07-03 09:35:00<br />
5:43 AM,73.0,71.1,93,29.95,1.8,Calm,Calm,-,0.03,,Partly Cloudy,0,2014-07-03 09:43:00<br />
5:51 AM,73.0,71.1,93,29.93,1.0,Calm,Calm,-,0.03,,Clear,0,2014-07-03 09:51:00<br />
6:19 AM,73.9,72.0,93,29.97,2.5,WNW,5.8,-,N/A,,Partly Cloudy,290,2014-07-03 10:19:00<br />
6:30 AM,73.9,72.0,93,29.98,3.0,Calm,Calm,-,N/A,,Partly Cloudy,0,2014-07-03 10:30:00<br />
6:39 AM,73.9,72.0,93,29.98,3.0,Calm,Calm,-,N/A,,Mostly Cloudy,0,2014-07-03 10:39:00<br />
6:47 AM,73.4,71.6,94,29.98,2.0,Calm,Calm,-,N/A,,Mostly Cloudy,0,2014-07-03 10:47:00<br />
6:51 AM,73.9,72.0,93,29.96,2.5,Calm,Calm,-,N/A,,Mostly Cloudy,0,2014-07-03 10:51:00<br />
7:01 AM,73.9,72.0,93,29.99,3.0,Calm,Calm,-,N/A,,Mostly Cloudy,0,2014-07-03 11:01:00<br />
7:09 AM,73.9,72.0,93,29.99,3.0,Calm,Calm,-,N/A,,Mostly Cloudy,0,2014-07-03 11:09:00<br />
7:39 AM,73.9,71.1,91,29.98,6.0,Calm,Calm,-,N/A,,Partly Cloudy,0,2014-07-03 11:39:00<br />
7:51 AM,75.0,72.0,90,29.95,5.0,Calm,Calm,-,N/A,,Partly Cloudy,0,2014-07-03 11:51:00<br />
8:51 AM,75.9,73.0,91,29.96,6.0,Calm,Calm,-,N/A,,Partly Cloudy,0,2014-07-03 12:51:00<br />
9:51 AM,79.0,73.0,82,29.96,7.0,Variable,3.5,-,N/A,,Scattered Clouds,0,2014-07-03 13:51:00<br />
10:51 AM,81.0,73.0,77,29.96,7.0,Calm,Calm,-,N/A,,Mostly Cloudy,0,2014-07-03 14:51:00<br />
11:10 AM,82.0,73.0,74,29.99,7.0,Calm,Calm,-,N/A,,Scattered Clouds,0,2014-07-03 15:10:00<br />
11:51 AM,84.0,73.0,69,29.96,6.0,West,4.6,-,N/A,,Haze,260,2014-07-03 15:51:00<br />
12:43 PM,84.0,73.9,72,29.99,7.0,Variable,3.5,-,N/A,,Mostly Cloudy,0,2014-07-03 16:43:00<br />
12:51 PM,84.0,73.9,72,29.96,7.0,Calm,Calm,-,N/A,,Mostly Cloudy,0,2014-07-03 16:51:00<br />
1:38 PM,84.0,73.0,69,29.98,7.0,Calm,Calm,-,N/A,,Mostly Cloudy,0,2014-07-03 17:38:00<br />
1:51 PM,84.9,73.9,69,29.95,7.0,Variable,5.8,-,N/A,,Mostly Cloudy,0,2014-07-03 17:51:00<br />
2:51 PM,84.0,73.0,69,29.94,8.0,Variable,4.6,-,N/A,,Mostly Cloudy,0,2014-07-03 18:51:00<br />
3:51 PM,84.0,72.0,67,29.92,8.0,South,9.2,-,N/A,,Clear,170,2014-07-03 19:51:00<br />
4:51 PM,84.0,72.0,67,29.89,8.0,SSE,8.1,18.4,N/A,,Clear,160,2014-07-03 20:51:00<br />
5:51 PM,82.0,72.0,71,29.88,7.0,Variable,3.5,18.4,N/A,,Partly Cloudy,0,2014-07-03 21:51:00<br />
6:51 PM,81.0,72.0,74,29.88,7.0,Variable,5.8,-,N/A,,Clear,0,2014-07-03 22:51:00<br />
7:15 PM,79.0,73.9,84,29.93,1.5,North,-9999.0,-,0.00,Rain,Light Rain,0,2014-07-03 23:15:00<br />
7:21 PM,73.9,70.0,87,29.91,0.2,SW,8.1,25.3,0.24,Fog-Rain,Heavy Rain,230,2014-07-03 23:21:00<br />
7:24 PM,73.9,70.0,87,29.90,0.2,SE,6.9,25.3,0.36,Fog-Rain,Heavy Rain,140,2014-07-03 23:24:00<br />
7:33 PM,73.9,71.1,91,29.90,2.5,Calm,Calm,-,0.48,Rain,Light Rain,0,2014-07-03 23:33:00<br />
7:51 PM,73.9,72.0,93,29.90,2.5,West,5.8,-,0.48,,Scattered Clouds,260,2014-07-03 23:51:00<br />
8:02 PM,73.0,70.0,90,29.98,5.0,North,8.1,21.9,N/A,,Mostly Cloudy,350,2014-07-04 00:02:00<br />
8:13 PM,72.0,68.0,87,30.01,7.0,WNW,8.1,-,0.00,Rain,Light Rain,300,2014-07-04 00:13:00<br />
8:20 PM,71.1,68.0,90,30.03,6.0,Variable,5.8,21.9,0.00,Rain,Light Rain,0,2014-07-04 00:20:00<br />
8:24 PM,71.1,68.0,90,30.01,2.5,North,-9999.0,-,0.01,Rain,Rain,0,2014-07-04 00:24:00<br />
8:29 PM,71.1,68.0,90,30.01,0.8,NNW,8.1,21.9,0.04,Rain,Heavy Rain,340,2014-07-04 00:29:00<br />
8:36 PM,70.0,66.9,90,30.00,0.2,North,-9999.0,-,0.36,Fog-Rain,Heavy Rain,0,2014-07-04 00:36:00<br />
8:47 PM,69.8,66.2,88,30.05,0.5,West,9.2,17.3,0.69,Fog-Rain,Heavy Rain,280,2014-07-04 00:47:00<br />
8:51 PM,69.1,66.9,93,30.05,0.5,West,9.2,-,0.82,Fog-Rain,Heavy Rain,280,2014-07-04 00:51:00<br />
9:07 PM,70.0,68.0,93,30.02,1.0,Variable,4.6,-,0.42,Rain,Rain,0,2014-07-04 01:07:00<br />
9:13 PM,70.0,66.9,90,30.03,3.0,Variable,4.6,-,0.43,Rain,Light Rain,0,2014-07-04 01:13:00<br />
9:20 PM,70.0,66.9,90,30.02,7.0,Variable,5.8,-,0.43,Rain,Light Rain,0,2014-07-04 01:20:00<br />
9:51 PM,70.0,68.0,93,30.00,5.0,Calm,Calm,-,0.44,,Partly Cloudy,0,2014-07-04 01:51:00<br />
10:51 PM,70.0,68.0,93,29.99,5.0,SE,3.5,-,N/A,,Clear,130,2014-07-04 02:51:00<br />
11:51 PM,70.0,68.0,93,29.99,3.0,Calm,Calm,-,N/A,,Scattered Clouds,0,2014-07-04 03:51:00<br />
12:51 AM,71.1,68.0,90,29.99,5.0,Calm,Calm,-,N/A,,Scattered Clouds,0,2014-07-04 04:51:00<br />
1:51 AM,70.0,68.0,93,29.97,3.0,Variable,3.5,-,N/A,,Clear,0,2014-07-04 05:51:00<br />
2:33 AM,71.1,69.1,93,30.01,2.5,Variable,3.5,-,N/A,,Mostly Cloudy,0,2014-07-04 06:33:00<br />
2:42 AM,71.1,69.1,93,30.01,5.0,WNW,3.5,-,N/A,,Overcast,290,2014-07-04 06:42:00<br />
2:51 AM,71.1,69.1,93,29.97,4.0,Calm,Calm,-,N/A,,Mostly Cloudy,0,2014-07-04 06:51:00<br />
3:03 AM,71.1,69.1,93,30.00,4.0,Variable,3.5,-,N/A,,Scattered Clouds,0,2014-07-04 07:03:00<br />
3:27 AM,71.1,69.1,93,30.00,2.5,Calm,Calm,-,N/A,,Mostly Cloudy,0,2014-07-04 07:27:00<br />
3:34 AM,71.1,69.1,93,30.00,3.0,Calm,Calm,-,N/A,,Mostly Cloudy,0,2014-07-04 07:34:00<br />
3:51 AM,71.1,69.1,93,29.97,4.0,Calm,Calm,-,N/A,,Overcast,0,2014-07-04 07:51:00<br />
4:06 AM,71.1,69.1,93,30.00,3.0,Calm,Calm,-,N/A,,Overcast,0,2014-07-04 08:06:00<br />
4:16 AM,71.1,69.1,93,30.00,2.5,Calm,Calm,-,N/A,,Overcast,0,2014-07-04 08:16:00<br />
4:27 AM,71.1,69.1,93,30.00,3.0,Calm,Calm,-,N/A,,Overcast,0,2014-07-04 08:27:00<br />
4:51 AM,71.1,69.1,93,29.98,3.0,Calm,Calm,-,N/A,,Overcast,0,2014-07-04 08:51:00<br />
5:01 AM,71.1,69.1,93,30.01,2.5,Variable,3.5,-,N/A,,Overcast,0,2014-07-04 09:01:00<br />
5:16 AM,71.1,69.1,93,30.01,3.0,Calm,Calm,-,N/A,,Overcast,0,2014-07-04 09:16:00<br />
5:26 AM,71.1,69.1,93,30.00,2.0,Calm,Calm,-,N/A,,Overcast,0,2014-07-04 09:26:00<br />
5:46 AM,71.6,69.8,94,30.01,3.0,Calm,Calm,-,N/A,,Overcast,0,2014-07-04 09:46:00<br />
5:51 AM,71.1,69.1,93,29.98,3.0,Calm,Calm,-,N/A,,Overcast,0,2014-07-04 09:51:00<br />
6:09 AM,71.1,68.0,90,30.00,4.0,Variable,4.6,-,N/A,,Overcast,0,2014-07-04 10:09:00<br />
6:51 AM,71.1,68.0,90,29.97,7.0,Variable,3.5,-,N/A,,Partly Cloudy,0,2014-07-04 10:51:00<br />
7:51 AM,71.1,68.0,90,29.98,9.0,Variable,6.9,-,N/A,,Mostly Cloudy,0,2014-07-04 11:51:00<br />
8:51 AM,70.0,64.0,81,29.99,10.0,Variable,5.8,-,N/A,,Overcast,0,2014-07-04 12:51:00<br />
9:51 AM,71.1,63.0,75,29.97,10.0,Variable,4.6,-,N/A,,Scattered Clouds,0,2014-07-04 13:51:00<br />
10:51 AM,73.0,63.0,71,29.96,10.0,Variable,6.9,-,N/A,,Clear,0,2014-07-04 14:51:00<br />
11:51 AM,73.9,63.0,68,29.96,10.0,ENE,8.1,20.7,N/A,,Mostly Cloudy,60,2014-07-04 15:51:00<br />
12:06 PM,73.0,63.0,71,29.97,10.0,NE,10.4,19.6,N/A,,Mostly Cloudy,50,2014-07-04 16:06:00<br />
12:31 PM,73.0,63.0,71,29.97,10.0,NE,9.2,-,N/A,,Overcast,50,2014-07-04 16:31:00<br />
12:51 PM,72.0,61.0,68,29.95,10.0,NE,8.1,18.4,N/A,,Overcast,40,2014-07-04 16:51:00<br />
1:51 PM,66.9,63.0,87,29.93,7.0,North,9.2,-,0.04,Rain,Light Rain,360,2014-07-04 17:51:00<br />
2:35 PM,68.0,64.0,87,29.95,2.5,Variable,6.9,-,0.02,Rain,Light Rain,0,2014-07-04 18:35:00<br />
2:51 PM,66.9,64.0,90,29.92,2.0,Variable,4.6,18.4,0.05,Rain,Light Rain,0,2014-07-04 18:51:00<br />
3:22 PM,66.0,63.0,90,29.95,4.0,Variable,5.8,-,0.03,Rain,Light Rain,0,2014-07-04 19:22:00<br />
3:51 PM,66.9,63.0,87,29.93,7.0,NE,8.1,21.9,0.03,Rain,Light Rain,50,2014-07-04 19:51:00<br />
4:07 PM,66.0,62.1,87,29.95,8.0,North,8.1,17.3,0.00,,Overcast,10,2014-07-04 20:07:00<br />
4:51 PM,66.0,63.0,90,29.91,9.0,Variable,5.8,-,0.02,,Overcast,0,2014-07-04 20:51:00<br />
5:00 PM,66.0,62.1,87,29.93,10.0,North,-9999.0,-,N/A,,Overcast,0,2014-07-04 21:00:00<br />
5:51 PM,69.1,63.0,81,29.91,10.0,Calm,Calm,-,N/A,,Mostly Cloudy,0,2014-07-04 21:51:00<br />
6:51 PM,70.0,59.0,68,29.91,10.0,North,-9999.0,-,N/A,,Overcast,0,2014-07-04 22:51:00<br />
7:51 PM,71.1,54.0,55,29.93,10.0,Variable,5.8,-,N/A,,Overcast,0,2014-07-04 23:51:00<br />
8:51 PM,70.0,52.0,53,29.95,10.0,Variable,6.9,19.6,N/A,,Scattered Clouds,0,2014-07-05 00:51:00<br />
9:51 PM,69.1,52.0,54,29.98,10.0,WNW,8.1,-,N/A,,Clear,300,2014-07-05 01:51:00<br />
10:51 PM,68.0,52.0,56,29.99,10.0,WNW,9.2,19.6,N/A,,Clear,300,2014-07-05 02:51:00<br />
11:51 PM,66.9,50.0,54,30.01,10.0,Variable,6.9,21.9,N/A,,Clear,0,2014-07-05 03:51:00<br />
12:51 AM,66.9,48.9,52,30.02,10.0,WNW,11.5,21.9,N/A,,Clear,300,2014-07-05 04:51:00<br />
1:51 AM,66.0,48.0,52,30.03,10.0,Variable,6.9,19.6,N/A,,Clear,0,2014-07-05 05:51:00<br />
2:51 AM,64.9,48.0,54,30.03,10.0,Variable,4.6,-,N/A,,Clear,0,2014-07-05 06:51:00<br />
3:51 AM,64.9,48.0,54,30.05,10.0,WNW,6.9,-,N/A,,Clear,290,2014-07-05 07:51:00<br />
4:51 AM,64.0,48.0,56,30.06,10.0,West,8.1,-,N/A,,Clear,270,2014-07-05 08:51:00<br />
5:51 AM,64.0,48.0,56,30.07,10.0,Variable,6.9,-,N/A,,Clear,0,2014-07-05 09:51:00<br />
6:51 AM,64.0,48.9,58,30.11,10.0,WNW,8.1,-,N/A,,Clear,290,2014-07-05 10:51:00<br />
7:51 AM,64.9,50.0,58,30.13,10.0,West,5.8,-,N/A,,Clear,270,2014-07-05 11:51:00<br />
8:51 AM,66.9,50.0,54,30.14,10.0,WNW,9.2,-,N/A,,Clear,290,2014-07-05 12:51:00<br />
9:51 AM,70.0,51.1,51,30.14,10.0,North,-9999.0,-,N/A,,Clear,0,2014-07-05 13:51:00<br />
10:51 AM,73.0,46.9,39,30.14,10.0,WNW,8.1,20.7,N/A,,Clear,300,2014-07-05 14:51:00<br />
11:51 AM,75.0,48.0,38,30.15,10.0,NW,8.1,-,N/A,,Partly Cloudy,310,2014-07-05 15:51:00<br />
12:51 PM,77.0,48.9,37,30.14,10.0,West,11.5,17.3,N/A,,Partly Cloudy,280,2014-07-05 16:51:00<br />
1:51 PM,79.0,51.1,38,30.13,10.0,Variable,3.5,-,N/A,,Scattered Clouds,0,2014-07-05 17:51:00<br />
2:51 PM,79.0,48.0,34,30.12,10.0,West,8.1,-,N/A,,Partly Cloudy,270,2014-07-05 18:51:00<br />
3:51 PM,80.1,48.9,34,30.12,10.0,Variable,5.8,16.1,N/A,,Clear,0,2014-07-05 19:51:00<br />
4:51 PM,80.1,48.0,32,30.11,10.0,Variable,5.8,-,N/A,,Clear,0,2014-07-05 20:51:00<br />
5:51 PM,80.1,48.0,32,30.09,10.0,WNW,10.4,16.1,N/A,,Clear,290,2014-07-05 21:51:00<br />
6:51 PM,80.1,48.0,32,30.09,10.0,West,9.2,-,N/A,,Clear,280,2014-07-05 22:51:00<br />
7:51 PM,79.0,46.9,32,30.09,10.0,WNW,9.2,-,N/A,,Clear,290,2014-07-05 23:51:00<br />
8:51 PM,75.9,48.0,37,30.09,10.0,Variable,4.6,-,N/A,,Clear,0,2014-07-06 00:51:00<br />
9:51 PM,75.9,48.9,38,30.10,10.0,West,4.6,-,N/A,,Clear,270,2014-07-06 01:51:00<br />
10:51 PM,75.0,51.1,43,30.10,10.0,Variable,4.6,-,N/A,,Clear,0,2014-07-06 02:51:00<br />
11:51 PM,73.0,52.0,48,30.11,10.0,West,3.5,-,N/A,,Clear,260,2014-07-06 03:51:00<br />
12:51 AM,72.0,52.0,49,30.10,10.0,West,3.5,-,N/A,,Clear,260,2014-07-06 04:51:00<br />
1:51 AM,71.1,52.0,51,30.09,10.0,North,-9999.0,-,N/A,,Clear,0,2014-07-06 05:51:00<br />
2:51 AM,70.0,52.0,53,30.09,10.0,Variable,3.5,-,N/A,,Clear,0,2014-07-06 06:51:00<br />
3:51 AM,69.1,51.1,53,30.07,10.0,Variable,3.5,-,N/A,,Clear,0,2014-07-06 07:51:00<br />
4:51 AM,68.0,51.1,55,30.07,10.0,West,6.9,-,N/A,,Clear,270,2014-07-06 08:51:00<br />
5:51 AM,66.9,51.1,57,30.09,10.0,Calm,Calm,-,N/A,,Clear,0,2014-07-06 09:51:00<br />
6:51 AM,66.9,52.0,59,30.10,10.0,West,3.5,-,N/A,,Clear,280,2014-07-06 10:51:00<br />
7:51 AM,69.1,52.0,54,30.10,10.0,Variable,4.6,-,N/A,,Clear,0,2014-07-06 11:51:00<br />
8:51 AM,72.0,53.1,51,30.09,10.0,Calm,Calm,-,N/A,,Clear,0,2014-07-06 12:51:00<br />
9:51 AM,75.0,53.1,46,30.08,10.0,Calm,Calm,-,N/A,,Clear,0,2014-07-06 13:51:00<br />
10:51 AM,78.1,53.1,42,30.07,10.0,Variable,3.5,-,N/A,,Clear,0,2014-07-06 14:51:00<br />
11:51 AM,82.0,52.0,35,30.04,10.0,West,6.9,-,N/A,,Clear,260,2014-07-06 15:51:00<br />
12:51 PM,82.9,51.1,33,30.02,10.0,Variable,5.8,18.4,N/A,,Clear,0,2014-07-06 16:51:00<br />
1:51 PM,84.2,55.4,37,30.02,10.0,SW,5.8,-,N/A,,Clear,230,2014-07-06 17:51:00<br />
2:51 PM,84.0,55.9,38,29.99,10.0,North,-9999.0,-,N/A,,Clear,0,2014-07-06 18:51:00<br />
3:51 PM,84.0,55.9,38,29.97,10.0,Variable,6.9,19.6,N/A,,Clear,0,2014-07-06 19:51:00<br />
4:51 PM,82.9,55.9,39,29.96,10.0,Variable,6.9,19.6,N/A,,Clear,0,2014-07-06 20:51:00<br />
5:51 PM,84.0,54.0,35,29.94,10.0,West,10.4,17.3,N/A,,Clear,270,2014-07-06 21:51:00<br />
6:51 PM,81.0,55.9,42,29.93,10.0,Variable,6.9,-,N/A,,Clear,0,2014-07-06 22:51:00<br />
7:51 PM,81.0,51.1,35,29.94,10.0,West,8.1,19.6,N/A,,Clear,260,2014-07-06 23:51:00<br />
8:51 PM,79.0,54.0,42,29.93,10.0,Variable,6.9,-,N/A,,Clear,0,2014-07-07 00:51:00<br />
9:51 PM,78.1,55.0,45,29.94,10.0,Variable,5.8,-,N/A,,Clear,0,2014-07-07 01:51:00<br />
10:51 PM,75.9,57.0,52,29.94,10.0,North,-9999.0,-,N/A,,Clear,0,2014-07-07 02:51:00<br />
11:51 PM,75.0,59.0,57,29.94,10.0,Variable,3.5,-,N/A,,Clear,0,2014-07-07 03:51:00<br />
12:51 AM,73.9,61.0,64,29.94,10.0,Variable,4.6,-,N/A,,Clear,0,2014-07-07 04:51:00<br />
1:51 AM,73.9,60.1,62,29.91,10.0,North,-9999.0,-,N/A,,Partly Cloudy,0,2014-07-07 05:51:00<br />
2:51 AM,73.0,60.1,64,29.90,10.0,WSW,10.4,18.4,N/A,,Overcast,240,2014-07-07 06:51:00<br />
3:51 AM,73.0,61.0,66,29.88,10.0,North,-9999.0,-,N/A,,Overcast,0,2014-07-07 07:51:00<br />
4:51 AM,73.0,61.0,66,29.88,10.0,Variable,3.5,-,N/A,,Overcast,0,2014-07-07 08:51:00<br />
5:51 AM,72.0,62.1,71,29.88,10.0,Variable,3.5,-,N/A,,Overcast,0,2014-07-07 09:51:00<br />
6:51 AM,73.0,62.1,68,29.88,10.0,Variable,3.5,-,N/A,,Mostly Cloudy,0,2014-07-07 10:51:00<br />
7:51 AM,73.0,63.0,71,29.88,10.0,Variable,3.5,-,N/A,,Clear,0,2014-07-07 11:51:00<br />
8:51 AM,75.9,64.0,67,29.87,10.0,Variable,3.5,-,N/A,,Clear,0,2014-07-07 12:51:00<br />
9:51 AM,79.0,63.0,58,29.85,9.0,Variable,3.5,-,N/A,,Clear,0,2014-07-07 13:51:00<br />
10:51 AM,81.0,64.0,56,29.84,9.0,Variable,4.6,-,N/A,,Clear,0,2014-07-07 14:51:00<br />
11:51 AM,84.9,66.0,53,29.83,9.0,West,6.9,-,N/A,,Clear,260,2014-07-07 15:51:00<br />
12:51 PM,87.1,64.9,48,29.81,9.0,Variable,6.9,-,N/A,,Partly Cloudy,0,2014-07-07 16:51:00<br />
1:51 PM,88.0,63.0,43,29.78,9.0,WSW,10.4,18.4,N/A,,Clear,240,2014-07-07 17:51:00<br />
2:51 PM,88.0,66.0,48,29.77,9.0,North,-9999.0,-,N/A,,Partly Cloudy,0,2014-07-07 18:51:00<br />
3:51 PM,88.0,66.0,48,29.75,9.0,Variable,6.9,17.3,N/A,,Clear,0,2014-07-07 19:51:00<br />
4:51 PM,90.0,61.0,38,29.74,10.0,Variable,5.8,-,N/A,,Clear,0,2014-07-07 20:51:00<br />
5:51 PM,87.1,64.0,46,29.73,9.0,Variable,6.9,-,N/A,,Clear,0,2014-07-07 21:51:00<br />
6:51 PM,88.0,63.0,43,29.74,9.0,North,-9999.0,-,N/A,,Clear,0,2014-07-07 22:51:00<br />
7:51 PM,86.0,63.0,46,29.76,9.0,Variable,4.6,-,N/A,,Clear,0,2014-07-07 23:51:00<br />
8:51 PM,84.9,61.0,44,29.78,10.0,Variable,5.8,23.0,N/A,,Clear,0,2014-07-08 00:51:00<br />
9:51 PM,84.9,61.0,44,29.79,10.0,WSW,8.1,-,N/A,,Clear,240,2014-07-08 01:51:00<br />
10:51 PM,82.9,62.1,49,29.80,10.0,Variable,4.6,-,N/A,,Clear,0,2014-07-08 02:51:00<br />
11:51 PM,82.0,64.0,54,29.81,10.0,Variable,4.6,-,N/A,,Clear,0,2014-07-08 03:51:00<br />
12:51 AM,80.1,62.1,54,29.85,10.0,Variable,6.9,-,N/A,,Overcast,0,2014-07-08 04:51:00<br />
12:56 AM,77.0,64.0,64,29.89,1.8,Variable,6.9,20.7,0.00,Rain,Light Rain,0,2014-07-08 04:56:00<br />
1:14 AM,71.1,68.0,90,29.90,0.8,Variable,5.8,-,0.18,Rain,Heavy Rain,0,2014-07-08 05:14:00<br />
1:25 AM,71.1,68.0,90,29.88,1.2,Calm,Calm,-,0.35,Rain,Rain,0,2014-07-08 05:25:00<br />
1:33 AM,71.1,68.0,90,29.86,2.5,Variable,3.5,-,0.39,Rain,Rain,0,2014-07-08 05:33:00<br />
1:43 AM,71.1,68.0,90,29.86,5.0,Calm,Calm,-,0.41,Rain,Light Rain,0,2014-07-08 05:43:00<br />
1:51 AM,72.0,68.0,87,29.83,5.0,Calm,Calm,-,0.42,Rain,Light Rain,0,2014-07-08 05:51:00<br />
2:51 AM,71.1,68.0,90,29.80,9.0,West,5.8,-,0.01,,Mostly Cloudy,260,2014-07-08 06:51:00<br />
3:51 AM,72.0,69.1,91,29.80,7.0,Calm,Calm,-,N/A,,Clear,0,2014-07-08 07:51:00<br />
4:51 AM,72.0,69.1,91,29.78,7.0,Variable,3.5,-,N/A,,Clear,0,2014-07-08 08:51:00<br />
5:51 AM,72.0,68.0,87,29.77,6.0,Calm,Calm,-,N/A,,Clear,0,2014-07-08 09:51:00<br />
6:51 AM,73.9,68.0,82,29.79,7.0,SW,3.5,-,N/A,,Clear,230,2014-07-08 10:51:00<br />
7:51 AM,75.9,69.1,79,29.83,7.0,Variable,5.8,-,N/A,,Clear,0,2014-07-08 11:51:00<br />
8:51 AM,77.0,69.1,76,29.83,7.0,Variable,5.8,-,N/A,,Clear,0,2014-07-08 12:51:00<br />
9:51 AM,80.1,70.0,71,29.83,7.0,Variable,5.8,-,N/A,,Clear,0,2014-07-08 13:51:00<br />
10:51 AM,82.4,68.0,62,29.82,8.0,Variable,3.5,-,N/A,,Clear,0,2014-07-08 14:51:00<br />
11:51 AM,88.0,64.9,46,29.80,8.0,Variable,4.6,-,N/A,,Clear,0,2014-07-08 15:51:00<br />
12:51 PM,89.1,66.0,46,29.79,9.0,Variable,5.8,19.6,N/A,,Partly Cloudy,0,2014-07-08 16:51:00<br />
1:51 PM,89.1,68.0,50,29.78,8.0,North,-9999.0,-,N/A,,Scattered Clouds,0,2014-07-08 17:51:00<br />
2:51 PM,89.1,68.0,50,29.75,8.0,South,4.6,-,N/A,,Clear,170,2014-07-08 18:51:00<br />
3:51 PM,88.0,68.0,51,29.73,9.0,Variable,4.6,-,N/A,,Clear,0,2014-07-08 19:51:00<br />
4:51 PM,88.0,66.9,49,29.70,9.0,South,4.6,-,N/A,,Clear,190,2014-07-08 20:51:00<br />
5:51 PM,89.1,64.0,43,29.69,9.0,North,-9999.0,-,N/A,,Scattered Clouds,0,2014-07-08 21:51:00<br />
6:51 PM,86.0,66.9,53,29.69,8.0,Variable,5.8,-,N/A,,Clear,0,2014-07-08 22:51:00<br />
7:51 PM,84.9,69.1,59,29.68,8.0,Variable,5.8,-,N/A,,Clear,0,2014-07-08 23:51:00<br />
8:51 PM,84.0,69.1,61,29.69,9.0,Variable,3.5,-,N/A,,Clear,0,2014-07-09 00:51:00<br />
9:51 PM,84.0,68.0,58,29.69,9.0,North,-9999.0,-,N/A,,Clear,0,2014-07-09 01:51:00<br />
10:51 PM,77.0,66.0,69,29.76,9.0,WSW,12.7,21.9,0.00,Rain,Light Rain,250,2014-07-09 02:51:00<br />
11:51 PM,75.9,64.9,69,29.78,10.0,Variable,6.9,-,0.00,,Clear,0,2014-07-09 03:51:00<br />
12:51 AM,75.0,64.9,71,29.78,10.0,North,-9999.0,-,N/A,,Clear,0,2014-07-09 04:51:00<br />
1:51 AM,73.0,64.9,76,29.79,10.0,WSW,6.9,-,N/A,,Clear,240,2014-07-09 05:51:00<br />
2:51 AM,73.0,64.9,76,29.79,10.0,Variable,6.9,-,N/A,,Clear,0,2014-07-09 06:51:00<br />
3:51 AM,73.0,64.9,76,29.79,10.0,North,-9999.0,-,N/A,,Clear,0,2014-07-09 07:51:00<br />
4:51 AM,73.0,64.9,76,29.81,10.0,Variable,5.8,-,N/A,,Clear,0,2014-07-09 08:51:00<br />
5:51 AM,72.0,64.9,78,29.84,10.0,North,-9999.0,-,N/A,,Clear,0,2014-07-09 09:51:00<br />
6:51 AM,72.0,64.9,78,29.86,10.0,Variable,4.6,-,N/A,,Clear,0,2014-07-09 10:51:00<br />
7:51 AM,73.0,64.9,76,29.87,10.0,Variable,3.5,-,N/A,,Clear,0,2014-07-09 11:51:00<br />
8:51 AM,75.9,64.9,69,29.88,10.0,Variable,4.6,-,N/A,,Clear,0,2014-07-09 12:51:00<br />
9:51 AM,78.1,63.0,60,29.88,10.0,Variable,6.9,-,N/A,,Scattered Clouds,0,2014-07-09 13:51:00<br />
10:51 AM,81.0,61.0,50,29.89,10.0,Calm,Calm,-,N/A,,Scattered Clouds,0,2014-07-09 14:51:00<br />
11:51 AM,81.0,63.0,54,29.90,10.0,Variable,3.5,-,N/A,,Scattered Clouds,0,2014-07-09 15:51:00<br />
12:51 PM,84.9,61.0,44,29.89,10.0,Variable,3.5,-,N/A,,Partly Cloudy,0,2014-07-09 16:51:00<br />
1:51 PM,86.0,59.0,40,29.89,10.0,WSW,10.4,-,N/A,,Clear,240,2014-07-09 17:51:00<br />
2:51 PM,84.9,64.0,49,29.87,10.0,Variable,4.6,-,N/A,,Scattered Clouds,0,2014-07-09 18:51:00<br />
3:51 PM,84.0,66.9,56,29.86,10.0,Variable,6.9,-,N/A,,Scattered Clouds,0,2014-07-09 19:51:00<br />
4:51 PM,82.9,68.0,60,29.85,9.0,South,8.1,-,N/A,,Mostly Cloudy,170,2014-07-09 20:51:00<br />
5:51 PM,82.0,69.1,65,29.84,9.0,Variable,4.6,-,N/A,,Clear,0,2014-07-09 21:51:00<br />
6:51 PM,81.0,68.0,65,29.86,9.0,Variable,3.5,-,N/A,,Partly Cloudy,0,2014-07-09 22:51:00<br />
7:51 PM,84.0,64.0,51,29.88,10.0,North,-9999.0,-,N/A,,Scattered Clouds,0,2014-07-09 23:51:00<br />
8:06 PM,78.1,64.9,64,29.93,1.2,NW,8.1,-,0.00,Rain,Rain,320,2014-07-10 00:06:00<br />
8:15 PM,72.0,66.9,84,29.92,0.8,Variable,4.6,20.7,0.09,Rain,Rain,0,2014-07-10 00:15:00<br />
8:20 PM,72.0,66.9,84,29.93,2.5,West,4.6,-,0.09,Rain,Light Rain,270,2014-07-10 00:20:00<br />
8:27 PM,72.0,69.1,91,29.93,7.0,Calm,Calm,-,0.09,,Mostly Cloudy,0,2014-07-10 00:27:00<br />
8:51 PM,71.1,66.9,87,29.91,10.0,Calm,Calm,-,0.09,,Scattered Clouds,0,2014-07-10 00:51:00<br />
9:51 PM,73.0,68.0,84,29.93,10.0,Calm,Calm,-,N/A,,Clear,0,2014-07-10 01:51:00<br />
10:51 PM,73.0,64.9,76,29.94,10.0,North,5.8,-,N/A,,Clear,350,2014-07-10 02:51:00<br />
11:51 PM,75.9,63.0,64,29.96,10.0,Calm,Calm,-,N/A,,Mostly Cloudy,0,2014-07-10 03:51:00<br />
12:51 AM,73.0,64.9,76,29.96,10.0,Calm,Calm,-,N/A,,Mostly Cloudy,0,2014-07-10 04:51:00<br />
1:51 AM,73.9,63.0,68,29.98,10.0,Calm,Calm,-,N/A,,Scattered Clouds,0,2014-07-10 05:51:00<br />
2:51 AM,75.0,60.1,60,29.98,10.0,Calm,Calm,-,N/A,,Clear,0,2014-07-10 06:51:00<br />
3:51 AM,73.9,60.1,62,29.99,10.0,Calm,Calm,-,N/A,,Clear,0,2014-07-10 07:51:00<br />
4:51 AM,72.0,60.1,66,30.01,10.0,Variable,3.5,-,N/A,,Clear,0,2014-07-10 08:51:00<br />
5:51 AM,72.0,62.1,71,30.02,10.0,NE,5.8,-,N/A,,Clear,50,2014-07-10 09:51:00<br />
6:51 AM,72.0,60.1,66,30.05,10.0,NNE,5.8,-,N/A,,Scattered Clouds,30,2014-07-10 10:51:00<br />
7:51 AM,72.0,62.1,71,30.07,10.0,Variable,6.9,-,N/A,,Partly Cloudy,0,2014-07-10 11:51:00<br />
8:51 AM,73.0,62.1,68,30.09,10.0,Variable,3.5,-,N/A,,Mostly Cloudy,0,2014-07-10 12:51:00<br />
9:51 AM,73.9,63.0,68,30.10,10.0,Variable,4.6,-,N/A,,Scattered Clouds,0,2014-07-10 13:51:00<br />
10:51 AM,75.0,62.1,64,30.12,10.0,Variable,3.5,-,N/A,,Scattered Clouds,0,2014-07-10 14:51:00<br />
11:51 AM,75.9,61.0,60,30.12,10.0,Variable,4.6,-,N/A,,Clear,0,2014-07-10 15:51:00<br />
12:51 PM,78.1,60.1,54,30.12,10.0,Variable,4.6,-,N/A,,Clear,0,2014-07-10 16:51:00<br />
1:51 PM,80.1,60.1,50,30.11,10.0,Variable,5.8,-,N/A,,Mostly Cloudy,0,2014-07-10 17:51:00<br />
2:51 PM,81.0,60.1,49,30.09,10.0,Variable,3.5,-,N/A,,Clear,0,2014-07-10 18:51:00<br />
3:51 PM,81.0,62.1,52,30.09,10.0,Variable,3.5,-,N/A,,Clear,0,2014-07-10 19:51:00<br />
4:51 PM,82.4,60.8,48,30.11,10.0,Variable,5.8,-,N/A,,Clear,0,2014-07-10 20:51:00<br />
5:51 PM,79.0,61.0,54,30.08,10.0,Calm,Calm,-,N/A,,Clear,0,2014-07-10 21:51:00<br />
6:51 PM,75.9,60.1,58,30.09,10.0,Variable,5.8,-,N/A,,Clear,0,2014-07-10 22:51:00<br />
7:51 PM,75.0,60.1,60,30.11,10.0,Calm,Calm,-,N/A,,Clear,0,2014-07-10 23:51:00<br />
8:51 PM,75.0,60.1,60,30.12,10.0,North,-9999.0,-,N/A,,Clear,0,2014-07-11 00:51:00<br />
9:51 PM,73.9,62.1,66,30.12,10.0,Calm,Calm,-,N/A,,Mostly Cloudy,0,2014-07-11 01:51:00<br />
10:51 PM,75.0,62.1,64,30.13,10.0,Calm,Calm,-,N/A,,Overcast,0,2014-07-11 02:51:00<br />
11:51 PM,73.9,62.1,66,30.14,10.0,Calm,Calm,-,N/A,,Overcast,0,2014-07-11 03:51:00<br />
12:51 AM,73.9,62.1,66,30.13,10.0,Calm,Calm,-,N/A,,Mostly Cloudy,0,2014-07-11 04:51:00<br />
1:51 AM,73.9,61.0,64,30.13,10.0,WNW,3.5,-,N/A,,Mostly Cloudy,290,2014-07-11 05:51:00<br />
2:51 AM,73.0,61.0,66,30.13,10.0,NE,3.5,-,N/A,,Clear,50,2014-07-11 06:51:00<br />
3:51 AM,73.9,62.1,66,30.14,10.0,NNE,3.5,-,N/A,,Partly Cloudy,30,2014-07-11 07:51:00<br />
4:51 AM,73.9,63.0,68,30.14,10.0,NE,4.6,-,N/A,,Partly Cloudy,50,2014-07-11 08:51:00<br />
5:51 AM,73.0,54.0,51,30.16,10.0,ENE,9.2,-,N/A,,Partly Cloudy,60,2014-07-11 09:51:00<br />
6:51 AM,72.0,55.9,57,30.17,10.0,Variable,4.6,-,N/A,,Clear,0,2014-07-11 10:51:00<br />
7:51 AM,73.0,53.1,49,30.19,10.0,North,8.1,-,N/A,,Overcast,10,2014-07-11 11:51:00<br />
8:51 AM,73.9,53.1,48,30.20,10.0,Variable,4.6,-,N/A,,Partly Cloudy,0,2014-07-11 12:51:00<br />
9:51 AM,75.9,55.0,48,30.21,10.0,Variable,4.6,-,N/A,,Scattered Clouds,0,2014-07-11 13:51:00<br />
10:51 AM,79.0,55.0,44,30.20,10.0,Variable,4.6,-,N/A,,Clear,0,2014-07-11 14:51:00<br />
11:51 AM,82.0,53.1,37,30.20,10.0,Variable,4.6,-,N/A,,Clear,0,2014-07-11 15:51:00<br />
12:51 PM,82.9,55.0,38,30.19,10.0,Variable,5.8,-,N/A,,Clear,0,2014-07-11 16:51:00<br />
1:51 PM,84.0,55.0,37,30.18,10.0,Variable,5.8,-,N/A,,Clear,0,2014-07-11 17:51:00<br />
2:51 PM,84.9,55.9,37,30.18,10.0,North,6.9,-,N/A,,Clear,10,2014-07-11 18:51:00<br />
3:51 PM,84.0,57.0,40,30.17,10.0,ENE,5.8,-,N/A,,Partly Cloudy,60,2014-07-11 19:51:00<br />
4:51 PM,81.0,59.0,47,30.17,10.0,Calm,Calm,-,N/A,,Scattered Clouds,0,2014-07-11 20:51:00<br />
5:51 PM,78.1,61.0,56,30.17,10.0,South,4.6,-,N/A,,Mostly Cloudy,170,2014-07-11 21:51:00<br />
6:51 PM,77.0,62.1,60,30.18,10.0,Calm,Calm,-,N/A,,Partly Cloudy,0,2014-07-11 22:51:00<br />
7:51 PM,75.9,62.1,62,30.19,10.0,South,6.9,-,N/A,,Overcast,170,2014-07-11 23:51:00<br />
8:51 PM,73.9,63.0,68,30.19,10.0,Calm,Calm,-,N/A,,Clear,0,2014-07-12 00:51:00<br />
9:51 PM,73.0,62.1,68,30.20,10.0,Calm,Calm,-,N/A,,Clear,0,2014-07-12 01:51:00<br />
10:51 PM,72.0,61.0,68,30.21,10.0,Calm,Calm,-,N/A,,Clear,0,2014-07-12 02:51:00<br />
11:51 PM,72.0,61.0,68,30.22,10.0,West,4.6,-,N/A,,Clear,280,2014-07-12 03:51:00<br />
12:51 AM,72.0,61.0,68,30.23,10.0,Calm,Calm,-,N/A,,Clear,0,2014-07-12 04:51:00<br />
1:51 AM,72.0,62.1,71,30.23,10.0,Calm,Calm,-,N/A,,Clear,0,2014-07-12 05:51:00<br />
2:51 AM,72.0,61.0,68,30.22,10.0,Calm,Calm,-,N/A,,Mostly Cloudy,0,2014-07-12 06:51:00<br />
3:51 AM,72.0,61.0,68,30.21,10.0,Calm,Calm,-,N/A,,Partly Cloudy,0,2014-07-12 07:51:00<br />
4:51 AM,72.0,61.0,68,30.22,10.0,Calm,Calm,-,N/A,,Mostly Cloudy,0,2014-07-12 08:51:00<br />
5:51 AM,71.1,61.0,70,30.23,9.0,Calm,Calm,-,N/A,,Clear,0,2014-07-12 09:51:00<br />
6:51 AM,73.0,64.0,73,30.23,8.0,Calm,Calm,-,N/A,,Clear,0,2014-07-12 10:51:00<br />
7:51 AM,73.9,61.0,64,30.23,9.0,West,4.6,-,N/A,,Clear,260,2014-07-12 11:51:00<br />
8:51 AM,75.9,59.0,56,30.23,10.0,Variable,3.5,-,N/A,,Clear,0,2014-07-12 12:51:00<br />
9:51 AM,78.1,62.1,58,30.23,10.0,Calm,Calm,-,N/A,,Clear,0,2014-07-12 13:51:00<br />
10:51 AM,80.1,60.1,50,30.22,10.0,Variable,3.5,-,N/A,,Clear,0,2014-07-12 14:51:00<br />
11:51 AM,81.0,62.1,52,30.21,10.0,Variable,3.5,-,N/A,,Clear,0,2014-07-12 15:51:00<br />
12:51 PM,84.0,61.0,46,30.19,10.0,Calm,Calm,-,N/A,,Clear,0,2014-07-12 16:51:00<br />
1:51 PM,84.2,62.6,48,30.22,10.0,South,10.4,19.6,N/A,,Scattered Clouds,180,2014-07-12 17:51:00<br />
2:51 PM,82.9,62.1,49,30.18,10.0,South,10.4,18.4,N/A,,Clear,180,2014-07-12 18:51:00<br />
3:51 PM,81.0,55.9,42,30.17,10.0,North,-9999.0,-,N/A,,Clear,0,2014-07-12 19:51:00<br />
4:51 PM,80.1,57.9,47,30.17,10.0,North,-9999.0,-,N/A,,Clear,0,2014-07-12 20:51:00<br />
5:51 PM,79.0,57.0,47,30.15,10.0,Variable,5.8,-,N/A,,Clear,0,2014-07-12 21:51:00<br />
6:51 PM,78.1,57.0,48,30.14,10.0,Variable,4.6,-,N/A,,Clear,0,2014-07-12 22:51:00<br />
7:51 PM,75.9,57.9,54,30.14,10.0,Variable,3.5,-,N/A,,Clear,0,2014-07-12 23:51:00<br />
8:51 PM,75.0,61.0,62,30.14,10.0,South,6.9,-,N/A,,Clear,180,2014-07-13 00:51:00<br />
9:51 PM,75.0,61.0,62,30.14,10.0,Variable,4.6,-,N/A,,Overcast,0,2014-07-13 01:51:00<br />
10:51 PM,75.0,57.0,53,30.14,10.0,Variable,4.6,-,N/A,,Overcast,0,2014-07-13 02:51:00<br />
11:51 PM,73.9,57.9,57,30.13,10.0,Variable,3.5,-,N/A,,Clear,0,2014-07-13 03:51:00<br />
12:51 AM,73.9,57.9,57,30.13,10.0,Variable,3.5,-,N/A,,Clear,0,2014-07-13 04:51:00<br />
1:51 AM,73.0,60.1,64,30.12,10.0,North,-9999.0,-,N/A,,Clear,0,2014-07-13 05:51:00<br />
2:51 AM,73.0,62.1,68,30.10,10.0,WSW,8.1,16.1,N/A,,Clear,250,2014-07-13 06:51:00<br />
3:51 AM,73.0,64.0,73,30.09,10.0,Variable,4.6,-,N/A,,Mostly Cloudy,0,2014-07-13 07:51:00<br />
4:51 AM,72.0,64.9,78,30.09,10.0,Variable,3.5,-,N/A,,Overcast,0,2014-07-13 08:51:00<br />
5:51 AM,72.0,64.9,78,30.09,10.0,SSW,3.5,-,N/A,,Mostly Cloudy,210,2014-07-13 09:51:00<br />
6:51 AM,72.0,64.9,78,30.09,9.0,Variable,3.5,-,N/A,,Scattered Clouds,0,2014-07-13 10:51:00<br />
7:51 AM,73.9,64.9,73,30.08,10.0,Variable,5.8,-,N/A,,Clear,0,2014-07-13 11:51:00<br />
8:37 AM,75.0,66.0,73,30.11,10.0,Calm,Calm,-,N/A,,Mostly Cloudy,0,2014-07-13 12:37:00<br />
8:51 AM,75.0,66.0,73,30.08,10.0,WSW,5.8,-,N/A,,Overcast,250,2014-07-13 12:51:00<br />
9:51 AM,75.0,66.9,76,30.06,9.0,Variable,4.6,-,N/A,,Overcast,0,2014-07-13 13:51:00<br />
10:51 AM,73.9,70.0,87,30.05,7.0,Variable,4.6,-,0.00,,Overcast,0,2014-07-13 14:51:00<br />
11:21 AM,78.1,70.0,76,30.07,8.0,Variable,4.6,-,N/A,,Mostly Cloudy,0,2014-07-13 15:21:00<br />
11:51 AM,80.1,69.1,69,30.04,9.0,Variable,3.5,-,N/A,,Partly Cloudy,0,2014-07-13 15:51:00<br />
12:51 PM,81.0,68.0,65,30.02,9.0,Variable,4.6,-,N/A,,Scattered Clouds,0,2014-07-13 16:51:00<br />
1:51 PM,82.0,68.0,62,30.00,9.0,SSE,5.8,-,N/A,,Partly Cloudy,150,2014-07-13 17:51:00<br />
2:51 PM,80.1,69.1,69,29.98,9.0,Variable,4.6,-,N/A,,Clear,0,2014-07-13 18:51:00<br />
3:51 PM,78.1,68.0,71,29.96,9.0,SSE,9.2,-,N/A,,Partly Cloudy,160,2014-07-13 19:51:00<br />
4:15 PM,75.9,71.1,85,29.97,2.5,Variable,3.5,-,0.03,Rain,Light Rain,0,2014-07-13 20:15:00<br />
4:22 PM,77.0,71.1,82,29.97,7.0,Variable,3.5,-,0.03,,Scattered Clouds,0,2014-07-13 20:22:00<br />
4:51 PM,77.0,70.0,79,29.92,8.0,SSE,8.1,-,0.03,,Clear,160,2014-07-13 20:51:00<br />
5:51 PM,78.1,70.0,76,29.91,8.0,Variable,5.8,-,N/A,,Clear,0,2014-07-13 21:51:00<br />
6:51 PM,78.1,69.1,74,29.90,8.0,Variable,5.8,-,N/A,,Clear,0,2014-07-13 22:51:00<br />
7:51 PM,78.1,70.0,76,29.90,8.0,Variable,4.6,-,N/A,,Clear,0,2014-07-13 23:51:00<br />
8:51 PM,79.0,70.0,74,29.91,9.0,South,5.8,-,N/A,,Clear,170,2014-07-14 00:51:00<br />
9:51 PM,78.1,70.0,76,29.90,9.0,Variable,4.6,-,N/A,,Clear,0,2014-07-14 01:51:00<br />
10:51 PM,79.0,69.1,72,29.91,9.0,South,5.8,-,N/A,,Partly Cloudy,180,2014-07-14 02:51:00<br />
12:51 AM,71.6,69.8,94,-9999,-9999.0,North,-9999.0,-,N/A,,Unknown,0,2014-07-14 04:51:00<br />
1:51 AM,69.8,69.8,100,-9999,-9999.0,North,-9999.0,-,N/A,,Unknown,0,2014-07-14 05:51:00<br />
2:51 AM,71.6,69.8,94,-9999,-9999.0,North,-9999.0,-,N/A,,Unknown,0,2014-07-14 06:51:00<br />
3:51 AM,71.6,69.8,94,-9999,-9999.0,North,-9999.0,-,N/A,,Unknown,0,2014-07-14 07:51:00<br />
4:51 AM,71.6,69.8,94,-9999,-9999.0,North,-9999.0,-,N/A,,Unknown,0,2014-07-14 08:51:00<br />
5:51 AM,71.6,69.8,94,-9999,-9999.0,North,-9999.0,-,N/A,,Unknown,0,2014-07-14 09:51:00<br />
6:51 AM,71.6,69.8,94,-9999,-9999.0,North,-9999.0,-,N/A,,Unknown,0,2014-07-14 10:51:00<br />
7:51 AM,71.6,71.6,100,-9999,-9999.0,North,-9999.0,-,N/A,,Unknown,0,2014-07-14 11:51:00<br />
8:51 AM,71.6,71.6,100,-9999,-9999.0,North,-9999.0,-,N/A,,Unknown,0,2014-07-14 12:51:00<br />
9:51 AM,73.4,71.6,94,-9999,-9999.0,North,-9999.0,-,N/A,,Unknown,0,2014-07-14 13:51:00<br />
10:51 AM,75.2,69.8,83,-9999,-9999.0,North,-9999.0,-,N/A,,Unknown,0,2014-07-14 14:51:00<br />
11:51 AM,77.0,71.1,82,29.91,6.0,Calm,Calm,-,N/A,,Haze,0,2014-07-14 15:51:00<br />
12:51 PM,79.0,70.0,74,29.91,7.0,Calm,Calm,-,N/A,,Overcast,0,2014-07-14 16:51:00<br />
1:51 PM,81.0,73.0,77,29.89,7.0,Calm,Calm,-,N/A,,Overcast,0,2014-07-14 17:51:00<br />
2:51 PM,82.0,71.1,69,29.87,7.0,South,3.5,-,N/A,,Overcast,170,2014-07-14 18:51:00<br />
3:16 PM,82.0,70.0,67,29.90,8.0,Calm,Calm,-,N/A,,Overcast,0,2014-07-14 19:16:00<br />
3:51 PM,82.9,72.0,69,29.85,8.0,Variable,3.5,-,N/A,,Mostly Cloudy,0,2014-07-14 19:51:00<br />
4:51 PM,81.0,72.0,74,29.84,7.0,North,-9999.0,-,N/A,,Mostly Cloudy,0,2014-07-14 20:51:00<br />
5:51 PM,79.0,72.0,79,29.83,7.0,Variable,5.8,-,N/A,,Partly Cloudy,0,2014-07-14 21:51:00<br />
6:51 PM,78.1,72.0,81,29.83,5.0,Variable,5.8,-,0.00,Rain,Light Rain,0,2014-07-14 22:51:00<br />
7:03 PM,75.0,72.0,90,29.86,1.0,WNW,3.5,-,0.05,Rain,Rain,290,2014-07-14 23:03:00<br />
7:11 PM,75.0,72.0,90,29.87,3.0,Calm,Calm,-,0.05,Rain,Light Rain,0,2014-07-14 23:11:00<br />
7:51 PM,75.0,73.0,94,29.85,4.0,East,3.5,-,0.05,,Mostly Cloudy,100,2014-07-14 23:51:00<br />
7:58 PM,75.0,73.0,94,29.88,2.5,Calm,Calm,-,N/A,,Overcast,0,2014-07-14 23:58:00<br />
8:12 PM,75.0,73.0,94,29.88,3.0,Calm,Calm,-,0.00,Rain,Light Rain,0,2014-07-15 00:12:00<br />
8:16 PM,73.9,72.0,93,29.89,1.8,West,4.6,-,0.02,Rain,Heavy Rain,270,2014-07-15 00:16:00<br />
8:25 PM,75.0,72.0,90,29.88,1.0,Calm,Calm,-,0.08,Rain,Heavy Rain,0,2014-07-15 00:25:00<br />
8:38 PM,73.9,72.0,93,29.88,3.0,Variable,4.6,-,0.15,Rain,Light Rain,0,2014-07-15 00:38:00<br />
8:51 PM,73.9,72.0,93,29.86,2.0,Variable,3.5,-,0.18,Rain,Light Rain,0,2014-07-15 00:51:00<br />
8:57 PM,73.9,72.0,93,29.89,1.8,Calm,Calm,-,0.00,Rain,Light Rain,0,2014-07-15 00:57:00<br />
9:06 PM,73.9,72.0,93,29.90,2.0,Calm,Calm,-,0.01,Rain,Light Rain,0,2014-07-15 01:06:00<br />
9:23 PM,73.9,72.0,93,29.90,3.0,Variable,4.6,-,0.01,Rain,Light Rain,0,2014-07-15 01:23:00<br />
9:29 PM,73.9,72.0,93,29.90,3.0,Variable,4.6,-,0.02,Rain,Light Rain,0,2014-07-15 01:29:00<br />
9:37 PM,73.9,72.0,93,29.89,2.5,Calm,Calm,-,0.03,Rain,Light Rain,0,2014-07-15 01:37:00<br />
9:51 PM,73.9,72.0,93,29.87,1.8,Variable,3.5,-,0.04,Rain,Rain,0,2014-07-15 01:51:00<br />
10:04 PM,73.9,72.0,93,29.90,2.0,SSE,5.8,-,0.03,Rain,Light Rain,160,2014-07-15 02:04:00<br />
10:21 PM,73.0,71.1,93,29.88,3.0,Calm,Calm,-,0.06,Rain,Light Rain,0,2014-07-15 02:21:00<br />
10:29 PM,73.0,71.1,93,29.89,2.5,Variable,3.5,-,0.07,Rain,Light Rain,0,2014-07-15 02:29:00<br />
10:51 PM,73.0,71.1,93,29.85,2.5,Variable,5.8,-,0.13,Rain,Light Rain,0,2014-07-15 02:51:00<br />
11:00 PM,73.0,71.1,93,29.87,3.0,Variable,5.8,-,0.00,Rain,Light Rain,0,2014-07-15 03:00:00<br />
11:09 PM,73.0,71.1,93,29.87,2.0,Variable,5.8,-,0.03,Rain,Rain,0,2014-07-15 03:09:00<br />
11:15 PM,73.0,71.1,93,29.87,3.0,Variable,5.8,-,0.04,Rain,Light Rain,0,2014-07-15 03:15:00<br />
11:51 PM,73.0,71.1,93,29.83,5.0,Variable,4.6,-,0.05,Rain,Light Rain,0,2014-07-15 03:51:00<br />
12:22 AM,73.0,71.1,93,29.85,5.0,Calm,Calm,-,0.01,,Mostly Cloudy,0,2014-07-15 04:22:00<br />
12:51 AM,73.0,71.1,93,29.81,4.0,Variable,4.6,-,0.01,,Mostly Cloudy,0,2014-07-15 04:51:00<br />
1:51 AM,73.0,71.1,93,29.81,5.0,Variable,3.5,-,N/A,,Overcast,0,2014-07-15 05:51:00<br />
2:06 AM,73.0,71.1,93,29.83,5.0,Calm,Calm,-,N/A,,Overcast,0,2014-07-15 06:06:00<br />
2:51 AM,73.0,71.1,93,29.81,4.0,Variable,4.6,-,N/A,,Overcast,0,2014-07-15 06:51:00<br />
3:51 AM,73.0,71.1,93,29.79,5.0,Variable,5.8,-,N/A,,Overcast,0,2014-07-15 07:51:00<br />
4:51 AM,73.0,71.1,93,29.79,6.0,WSW,4.6,-,N/A,,Overcast,240,2014-07-15 08:51:00<br />
5:09 AM,73.0,71.1,93,29.82,5.0,Calm,Calm,-,N/A,,Overcast,0,2014-07-15 09:09:00<br />
5:51 AM,73.0,71.1,93,29.79,4.0,Variable,4.6,-,N/A,,Overcast,0,2014-07-15 09:51:00<br />
6:02 AM,73.0,71.1,93,29.82,4.0,WSW,5.8,-,N/A,,Overcast,240,2014-07-15 10:02:00<br />
6:51 AM,73.9,71.1,91,29.79,4.0,West,3.5,-,N/A,,Overcast,270,2014-07-15 10:51:00<br />
7:51 AM,75.0,71.1,87,29.79,5.0,West,3.5,-,N/A,,Mostly Cloudy,260,2014-07-15 11:51:00<br />
8:34 AM,77.0,72.0,84,29.81,5.0,Calm,Calm,-,N/A,,Haze,0,2014-07-15 12:34:00<br />
8:51 AM,77.0,72.0,84,29.79,6.0,Calm,Calm,-,N/A,,Haze,0,2014-07-15 12:51:00<br />
9:11 AM,77.0,72.0,84,29.82,6.0,South,3.5,-,N/A,,Haze,170,2014-07-15 13:11:00<br />
9:51 AM,79.0,73.0,82,29.78,7.0,Calm,Calm,-,N/A,,Mostly Cloudy,0,2014-07-15 13:51:00<br />
10:10 AM,79.0,73.0,82,29.81,7.0,Variable,3.5,-,N/A,,Scattered Clouds,0,2014-07-15 14:10:00<br />
10:44 AM,80.1,73.0,79,29.81,7.0,Variable,4.6,-,N/A,,Mostly Cloudy,0,2014-07-15 14:44:00<br />
10:51 AM,79.0,72.0,79,29.79,7.0,North,-9999.0,-,N/A,,Mostly Cloudy,0,2014-07-15 14:51:00<br />
11:51 AM,78.1,73.0,84,29.79,5.0,WSW,8.1,-,N/A,,Haze,250,2014-07-15 15:51:00<br />
12:16 PM,81.0,73.9,79,29.81,5.0,Variable,3.5,-,N/A,,Haze,0,2014-07-15 16:16:00<br />
12:51 PM,82.0,73.9,76,29.78,6.0,Variable,4.6,-,N/A,,Haze,0,2014-07-15 16:51:00<br />
1:51 PM,84.0,73.9,72,29.75,6.0,Calm,Calm,-,N/A,,Haze,0,2014-07-15 17:51:00<br />
2:21 PM,81.0,73.0,77,29.78,1.5,West,5.8,-,0.00,Rain,Light Rain,280,2014-07-15 18:21:00<br />
2:23 PM,80.1,73.9,81,29.78,0.5,West,6.9,-,0.01,Rain,Heavy Rain,280,2014-07-15 18:23:00<br />
2:48 PM,73.4,71.6,94,29.80,0.2,West,3.5,18.4,0.59,Fog-Rain,Heavy Rain,270,2014-07-15 18:48:00<br />
2:51 PM,73.0,71.1,93,29.77,0.2,Calm,Calm,-,0.78,Fog-Rain,Heavy Rain,0,2014-07-15 18:51:00<br />
3:01 PM,73.9,71.1,91,29.80,0.8,Variable,3.5,-,0.13,Rain,Light Rain,0,2014-07-15 19:01:00<br />
3:05 PM,73.9,71.1,91,29.80,2.0,Variable,4.6,-,0.13,Rain,Light Rain,0,2014-07-15 19:05:00<br />
3:07 PM,73.9,71.1,91,29.80,3.0,Calm,Calm,-,0.13,,Overcast,0,2014-07-15 19:07:00<br />
3:51 PM,73.0,71.1,93,29.76,5.0,Calm,Calm,-,0.13,,Mostly Cloudy,0,2014-07-15 19:51:00<br />
4:51 PM,75.0,73.0,94,29.75,4.0,Variable,4.6,-,0.01,,Mostly Cloudy,0,2014-07-15 20:51:00<br />
5:51 PM,75.0,72.0,90,29.74,5.0,Calm,Calm,-,N/A,,Partly Cloudy,0,2014-07-15 21:51:00<br />
6:51 PM,73.9,71.1,91,29.76,3.0,Calm,Calm,-,0.01,Rain,Rain,0,2014-07-15 22:51:00<br />
6:58 PM,73.0,70.0,90,29.79,2.5,Calm,Calm,-,0.03,Rain,Rain,0,2014-07-15 22:58:00<br />
7:07 PM,73.0,71.1,93,29.80,3.0,Variable,3.5,-,0.04,Rain,Rain,0,2014-07-15 23:07:00<br />
7:30 PM,73.0,71.1,93,29.81,2.0,SSW,3.5,-,0.09,Rain,Rain,210,2014-07-15 23:30:00<br />
7:51 PM,73.0,71.1,93,29.78,2.5,Calm,Calm,-,0.17,Rain,Light Rain,0,2014-07-15 23:51:00<br />
8:10 PM,73.0,71.1,93,29.82,3.0,Variable,3.5,-,0.03,Rain,Light Rain,0,2014-07-16 00:10:00<br />
8:17 PM,72.0,70.0,93,29.81,4.0,Calm,Calm,-,0.04,Rain,Light Rain,0,2014-07-16 00:17:00<br />
8:25 PM,72.0,70.0,93,29.81,1.8,Calm,Calm,-,0.06,Rain,Rain,0,2014-07-16 00:25:00<br />
8:37 PM,72.0,70.0,93,29.81,2.5,Calm,Calm,-,0.11,Rain,Rain,0,2014-07-16 00:37:00<br />
8:47 PM,71.6,69.8,94,29.80,1.8,Calm,Calm,-,0.14,Rain,Rain,0,2014-07-16 00:47:00<br />
8:51 PM,72.0,70.0,93,29.78,1.8,Variable,3.5,-,0.15,Rain,Rain,0,2014-07-16 00:51:00<br />
9:12 PM,73.0,71.1,93,29.81,3.0,Calm,Calm,-,0.03,Rain,Rain,0,2014-07-16 01:12:00<br />
9:51 PM,73.0,71.1,93,29.77,4.0,SSE,6.9,-,0.05,,Scattered Clouds,160,2014-07-16 01:51:00<br />
10:00 PM,72.0,70.0,93,29.80,3.0,Calm,Calm,-,N/A,,Mostly Cloudy,0,2014-07-16 02:00:00<br />
10:20 PM,73.0,71.1,93,29.79,2.0,Calm,Calm,-,N/A,,Overcast,0,2014-07-16 02:20:00<br />
10:39 PM,72.0,70.0,93,29.78,1.8,Calm,Calm,-,N/A,,Mostly Cloudy,0,2014-07-16 02:39:00<br />
10:51 PM,72.0,70.0,93,29.76,1.5,Calm,Calm,-,N/A,,Mostly Cloudy,0,2014-07-16 02:51:00<br />
11:01 PM,72.0,70.0,93,29.79,1.8,South,3.5,-,N/A,,Partly Cloudy,170,2014-07-16 03:01:00<br />
11:14 PM,72.0,70.0,93,29.80,2.5,SSE,4.6,-,N/A,,Partly Cloudy,150,2014-07-16 03:14:00<br />
11:44 PM,72.0,70.0,93,29.81,2.5,Calm,Calm,-,N/A,,Mostly Cloudy,0,2014-07-16 03:44:00<br />
11:51 PM,72.0,69.1,91,29.78,3.0,Calm,Calm,-,N/A,,Mostly Cloudy,0,2014-07-16 03:51:00<br />
11:59 PM,72.0,70.0,93,29.81,2.5,Calm,Calm,-,N/A,,Mostly Cloudy,0,2014-07-16 03:59:00<br />
12:14 AM,72.0,70.0,93,29.81,1.8,Calm,Calm,-,N/A,,Overcast,0,2014-07-16 04:14:00<br />
12:28 AM,72.0,70.0,93,29.81,3.0,Calm,Calm,-,N/A,,Mostly Cloudy,0,2014-07-16 04:28:00<br />
12:33 AM,72.0,70.0,93,29.80,2.5,Calm,Calm,-,N/A,,Mostly Cloudy,0,2014-07-16 04:33:00<br />
12:40 AM,72.0,70.0,93,29.80,4.0,Calm,Calm,-,N/A,,Mostly Cloudy,0,2014-07-16 04:40:00<br />
12:51 AM,72.0,70.0,93,29.77,4.0,Variable,3.5,-,N/A,,Mostly Cloudy,0,2014-07-16 04:51:00<br />
1:05 AM,72.0,70.0,93,29.79,2.5,Calm,Calm,-,N/A,,Mostly Cloudy,0,2014-07-16 05:05:00<br />
1:15 AM,72.0,70.0,93,29.79,3.0,Calm,Calm,-,N/A,,Overcast,0,2014-07-16 05:15:00<br />
1:31 AM,72.0,70.0,93,29.79,2.5,Calm,Calm,-,N/A,,Mostly Cloudy,0,2014-07-16 05:31:00<br />
1:51 AM,71.6,69.8,94,29.79,2.0,Variable,3.5,-,N/A,,Overcast,0,2014-07-16 05:51:00<br />
2:01 AM,72.0,70.0,93,29.79,1.8,Calm,Calm,-,N/A,,Overcast,0,2014-07-16 06:01:00<br />
2:25 AM,72.0,70.0,93,29.79,2.5,Calm,Calm,-,N/A,,Overcast,0,2014-07-16 06:25:00<br />
2:33 AM,72.0,70.0,93,29.79,3.0,Variable,3.5,-,N/A,,Overcast,0,2014-07-16 06:33:00<br />
2:51 AM,72.0,70.0,93,29.76,3.0,Calm,Calm,-,N/A,,Overcast,0,2014-07-16 06:51:00<br />
2:59 AM,72.0,70.0,93,29.78,3.0,Variable,3.5,-,N/A,,Overcast,0,2014-07-16 06:59:00<br />
3:26 AM,72.0,69.1,91,29.78,4.0,Variable,5.8,-,N/A,,Mostly Cloudy,0,2014-07-16 07:26:00<br />
3:51 AM,72.0,69.1,91,29.75,4.0,Variable,3.5,-,N/A,,Mostly Cloudy,0,2014-07-16 07:51:00<br />
4:51 AM,72.0,69.1,91,29.75,6.0,WSW,4.6,-,N/A,,Mostly Cloudy,250,2014-07-16 08:51:00<br />
5:26 AM,72.0,69.1,91,29.78,7.0,West,5.8,-,N/A,,Mostly Cloudy,260,2014-07-16 09:26:00<br />
5:32 AM,72.0,69.1,91,29.79,5.0,Calm,Calm,-,N/A,,Overcast,0,2014-07-16 09:32:00<br />
5:51 AM,72.0,69.1,91,29.77,5.0,Variable,3.5,-,N/A,,Overcast,0,2014-07-16 09:51:00<br />
6:04 AM,72.0,69.1,91,29.80,4.0,Calm,Calm,-,N/A,,Overcast,0,2014-07-16 10:04:00<br />
6:21 AM,72.0,70.0,93,29.80,3.0,Variable,3.5,-,N/A,,Overcast,0,2014-07-16 10:21:00<br />
6:51 AM,72.0,70.0,93,29.78,3.0,Variable,6.9,-,N/A,,Overcast,0,2014-07-16 10:51:00<br />
7:49 AM,69.8,64.4,83,29.82,9.0,Calm,Calm,-,N/A,,Mostly Cloudy,0,2014-07-16 11:49:00<br />
7:51 AM,70.0,64.0,81,29.79,9.0,Variable,3.5,-,N/A,,Mostly Cloudy,0,2014-07-16 11:51:00<br />
8:51 AM,69.1,64.0,84,29.81,10.0,Variable,5.8,-,0.00,,Overcast,0,2014-07-16 12:51:00<br />
9:51 AM,69.1,62.1,78,29.82,10.0,North,6.9,-,N/A,,Overcast,10,2014-07-16 13:51:00<br />
10:51 AM,70.0,59.0,68,29.83,10.0,Variable,5.8,-,N/A,,Mostly Cloudy,0,2014-07-16 14:51:00<br />
11:51 AM,71.1,62.1,73,29.83,10.0,Calm,Calm,-,N/A,,Scattered Clouds,0,2014-07-16 15:51:00<br />
12:51 PM,73.0,59.0,61,29.84,10.0,Variable,3.5,-,N/A,,Clear,0,2014-07-16 16:51:00<br />
1:51 PM,75.9,57.9,54,29.83,10.0,Variable,3.5,-,N/A,,Clear,0,2014-07-16 17:51:00<br />
2:51 PM,78.1,55.9,46,29.82,10.0,Calm,Calm,-,N/A,,Clear,0,2014-07-16 18:51:00<br />
3:51 PM,80.1,60.1,50,29.80,10.0,Calm,Calm,-,N/A,,Clear,0,2014-07-16 19:51:00<br />
4:51 PM,80.1,59.0,48,29.79,10.0,Variable,5.8,-,N/A,,Partly Cloudy,0,2014-07-16 20:51:00<br />
5:51 PM,79.0,57.9,48,29.80,10.0,Variable,4.6,-,N/A,,Partly Cloudy,0,2014-07-16 21:51:00<br />
6:51 PM,79.0,55.0,44,29.82,10.0,North,-9999.0,-,N/A,,Partly Cloudy,0,2014-07-16 22:51:00<br />
7:51 PM,78.1,54.0,43,29.83,10.0,WNW,4.6,-,N/A,,Clear,290,2014-07-16 23:51:00<br />
8:51 PM,75.9,55.0,48,29.85,10.0,WNW,4.6,-,N/A,,Clear,290,2014-07-17 00:51:00<br />
9:51 PM,75.9,54.0,46,29.87,10.0,WNW,4.6,-,N/A,,Clear,290,2014-07-17 01:51:00<br />
10:51 PM,73.9,53.1,48,29.87,10.0,Calm,Calm,-,N/A,,Clear,0,2014-07-17 02:51:00<br />
11:51 PM,73.9,53.1,48,29.89,10.0,WNW,4.6,-,N/A,,Clear,290,2014-07-17 03:51:00<br />
12:51 AM,73.0,53.1,49,29.88,10.0,WNW,4.6,-,N/A,,Clear,290,2014-07-17 04:51:00<br />
1:51 AM,72.0,55.9,57,29.89,10.0,Calm,Calm,-,N/A,,Clear,0,2014-07-17 05:51:00<br />
2:51 AM,70.0,55.9,61,29.89,10.0,North,4.6,-,N/A,,Clear,360,2014-07-17 06:51:00<br />
3:51 AM,68.0,59.0,73,29.90,10.0,Variable,4.6,-,N/A,,Clear,0,2014-07-17 07:51:00<br />
4:51 AM,70.0,52.0,53,29.91,10.0,NE,4.6,-,N/A,,Clear,40,2014-07-17 08:51:00<br />
5:51 AM,69.1,51.1,53,29.93,10.0,NE,4.6,-,N/A,,Clear,50,2014-07-17 09:51:00<br />
6:51 AM,68.0,52.0,56,29.95,10.0,Variable,5.8,-,N/A,,Clear,0,2014-07-17 10:51:00<br />
7:51 AM,69.1,55.0,61,29.96,10.0,Calm,Calm,-,N/A,,Clear,0,2014-07-17 11:51:00<br />
8:51 AM,71.1,57.0,61,29.97,10.0,ENE,5.8,-,N/A,,Clear,70,2014-07-17 12:51:00<br />
9:51 AM,73.0,55.0,53,29.98,10.0,Variable,5.8,-,N/A,,Clear,0,2014-07-17 13:51:00<br />
10:51 AM,75.0,55.9,51,29.99,10.0,ENE,4.6,-,N/A,,Clear,70,2014-07-17 14:51:00<br />
11:51 AM,77.0,55.9,48,29.99,10.0,Variable,5.8,-,N/A,,Mostly Cloudy,0,2014-07-17 15:51:00<br />
12:51 PM,75.9,55.9,50,29.98,10.0,Variable,4.6,-,N/A,,Overcast,0,2014-07-17 16:51:00<br />
1:51 PM,78.1,55.0,45,29.97,10.0,Calm,Calm,-,N/A,,Mostly Cloudy,0,2014-07-17 17:51:00<br />
2:51 PM,75.9,57.0,52,29.98,10.0,Variable,4.6,-,N/A,,Overcast,0,2014-07-17 18:51:00<br />
3:51 PM,78.1,55.0,45,29.98,10.0,Calm,Calm,-,N/A,,Mostly Cloudy,0,2014-07-17 19:51:00<br />
4:51 PM,75.0,59.0,57,29.99,10.0,Variable,3.5,-,N/A,,Mostly Cloudy,0,2014-07-17 20:51:00<br />
5:51 PM,75.9,54.0,46,29.99,10.0,WSW,5.8,-,N/A,,Partly Cloudy,250,2014-07-17 21:51:00<br />
6:51 PM,75.9,55.0,48,30.01,10.0,Variable,5.8,-,N/A,,Partly Cloudy,0,2014-07-17 22:51:00<br />
7:51 PM,77.0,52.0,42,30.04,10.0,West,8.1,-,N/A,,Clear,280,2014-07-17 23:51:00<br />
8:51 PM,75.9,48.9,38,30.05,10.0,WNW,5.8,-,N/A,,Clear,290,2014-07-18 00:51:00<br />
9:51 PM,75.0,51.1,43,30.07,10.0,Variable,3.5,-,N/A,,Clear,0,2014-07-18 01:51:00<br />
10:51 PM,73.0,53.1,49,30.09,10.0,WNW,4.6,-,N/A,,Clear,290,2014-07-18 02:51:00<br />
11:51 PM,72.0,54.0,53,30.11,10.0,Variable,3.5,-,N/A,,Clear,0,2014-07-18 03:51:00<br />
12:51 AM,70.0,55.0,59,30.12,10.0,Calm,Calm,-,N/A,,Clear,0,2014-07-18 04:51:00<br />
1:51 AM,69.1,55.9,63,30.13,10.0,Variable,3.5,-,N/A,,Clear,0,2014-07-18 05:51:00<br />
2:51 AM,68.0,55.9,65,30.14,10.0,Variable,3.5,-,N/A,,Clear,0,2014-07-18 06:51:00<br />
3:51 AM,66.0,55.9,70,30.15,10.0,Calm,Calm,-,N/A,,Clear,0,2014-07-18 07:51:00<br />
4:51 AM,66.0,55.0,68,30.16,10.0,Variable,4.6,-,N/A,,Clear,0,2014-07-18 08:51:00<br />
5:51 AM,64.9,55.0,70,30.19,10.0,Calm,Calm,-,N/A,,Clear,0,2014-07-18 09:51:00<br />
6:51 AM,66.0,57.0,73,30.20,10.0,Variable,3.5,-,N/A,,Clear,0,2014-07-18 10:51:00<br />
7:51 AM,69.1,54.0,58,30.22,10.0,Variable,3.5,-,N/A,,Clear,0,2014-07-18 11:51:00<br />
8:51 AM,71.1,52.0,51,30.22,10.0,Variable,5.8,-,N/A,,Clear,0,2014-07-18 12:51:00<br />
9:51 AM,73.0,50.0,44,30.23,10.0,NNE,8.1,-,N/A,,Clear,20,2014-07-18 13:51:00<br />
10:51 AM,75.0,50.0,41,30.22,10.0,NNE,9.2,-,N/A,,Clear,30,2014-07-18 14:51:00<br />
11:51 AM,77.0,52.0,42,30.22,10.0,Variable,6.9,-,N/A,,Clear,0,2014-07-18 15:51:00<br />
12:51 PM,79.0,51.1,38,30.22,10.0,ENE,8.1,-,N/A,,Clear,60,2014-07-18 16:51:00<br />
1:51 PM,79.0,51.1,38,30.20,10.0,Variable,4.6,-,N/A,,Clear,0,2014-07-18 17:51:00<br />
2:51 PM,79.0,55.0,44,30.19,10.0,Variable,3.5,-,N/A,,Clear,0,2014-07-18 18:51:00<br />
3:51 PM,80.1,51.1,36,30.19,10.0,Calm,Calm,-,N/A,,Clear,0,2014-07-18 19:51:00<br />
4:51 PM,80.1,52.0,38,30.19,10.0,Variable,3.5,-,N/A,,Clear,0,2014-07-18 20:51:00<br />
5:51 PM,79.0,50.0,36,30.19,10.0,ENE,4.6,-,N/A,,Clear,60,2014-07-18 21:51:00<br />
6:51 PM,77.0,51.1,40,30.20,10.0,North,-9999.0,-,N/A,,Clear,0,2014-07-18 22:51:00<br />
7:51 PM,77.0,51.1,40,30.21,10.0,NE,4.6,-,N/A,,Clear,50,2014-07-18 23:51:00<br />
8:51 PM,73.4,50.0,44,-9999,-9999.0,North,-9999.0,-,N/A,,Unknown,0,2014-07-19 00:51:00<br />
9:51 PM,71.6,50.0,46,-9999,-9999.0,North,-9999.0,-,N/A,,Unknown,0,2014-07-19 01:51:00<br />
10:51 PM,71.6,51.8,50,-9999,-9999.0,North,-9999.0,-,N/A,,Unknown,0,2014-07-19 02:51:00<br />
11:51 PM,69.8,51.8,53,-9999,-9999.0,North,-9999.0,-,N/A,,Unknown,0,2014-07-19 03:51:00<br />
12:51 AM,69.8,48.2,46,-9999,-9999.0,North,-9999.0,-,N/A,,Unknown,0,2014-07-19 04:51:00<br />
1:51 AM,69.8,48.2,46,-9999,-9999.0,North,-9999.0,-,N/A,,Unknown,0,2014-07-19 05:51:00<br />
2:51 AM,69.8,50.0,49,-9999,-9999.0,North,-9999.0,-,N/A,,Unknown,0,2014-07-19 06:51:00<br />
3:51 AM,69.8,53.6,56,-9999,-9999.0,North,-9999.0,-,N/A,,Unknown,0,2014-07-19 07:51:00<br />
4:51 AM,69.8,53.6,56,-9999,-9999.0,North,-9999.0,-,N/A,,Unknown,0,2014-07-19 08:51:00<br />
5:51 AM,68.0,53.6,60,-9999,-9999.0,North,-9999.0,-,N/A,,Unknown,0,2014-07-19 09:51:00<br />
6:51 AM,68.0,57.2,68,-9999,-9999.0,North,-9999.0,-,N/A,,Unknown,0,2014-07-19 10:51:00<br />
7:51 AM,69.8,62.6,78,-9999,-9999.0,North,-9999.0,-,N/A,,Unknown,0,2014-07-19 11:51:00<br />
8:51 AM,69.8,62.6,78,-9999,-9999.0,North,-9999.0,-,N/A,,Unknown,0,2014-07-19 12:51:00<br />
9:51 AM,73.0,60.1,64,30.25,10.0,Variable,3.5,-,N/A,,Clear,0,2014-07-19 13:51:00<br />
10:51 AM,75.0,55.9,51,30.23,10.0,NE,5.8,-,N/A,,Clear,40,2014-07-19 14:51:00<br />
11:51 AM,75.0,55.9,51,30.23,10.0,ENE,4.6,-,N/A,,Clear,60,2014-07-19 15:51:00<br />
12:51 PM,75.9,57.9,54,30.22,10.0,East,6.9,-,N/A,,Clear,80,2014-07-19 16:51:00<br />
1:51 PM,75.2,57.2,53,-9999,-9999.0,North,-9999.0,-,N/A,,Unknown,0,2014-07-19 17:51:00<br />
2:51 PM,75.2,57.2,53,-9999,-9999.0,North,-9999.0,-,N/A,,Unknown,0,2014-07-19 18:51:00<br />
3:51 PM,73.4,59.0,61,-9999,-9999.0,North,-9999.0,-,N/A,,Unknown,0,2014-07-19 19:51:00<br />
4:51 PM,75.2,57.2,53,-9999,-9999.0,North,-9999.0,-,N/A,,Unknown,0,2014-07-19 20:51:00<br />
5:51 PM,75.2,57.2,53,-9999,-9999.0,North,-9999.0,-,N/A,,Unknown,0,2014-07-19 21:51:00<br />
7:51 PM,73.4,55.4,53,-9999,-9999.0,North,-9999.0,-,N/A,,Unknown,0,2014-07-19 23:51:00<br />
8:51 PM,71.6,55.4,57,-9999,-9999.0,North,-9999.0,-,N/A,,Unknown,0,2014-07-20 00:51:00<br />
9:51 PM,69.8,55.4,60,-9999,-9999.0,North,-9999.0,-,N/A,,Unknown,0,2014-07-20 01:51:00<br />
11:51 PM,69.8,57.2,64,-9999,-9999.0,North,-9999.0,-,N/A,,Unknown,0,2014-07-20 03:51:00<br />
12:51 AM,69.8,57.2,64,-9999,-9999.0,North,-9999.0,-,N/A,,Unknown,0,2014-07-20 04:51:00<br />
1:51 AM,69.8,59.0,68,-9999,-9999.0,North,-9999.0,-,N/A,,Unknown,0,2014-07-20 05:51:00<br />
2:51 AM,68.0,60.8,78,-9999,-9999.0,North,-9999.0,-,N/A,,Unknown,0,2014-07-20 06:51:00<br />
3:51 AM,68.0,60.8,78,-9999,-9999.0,North,-9999.0,-,N/A,,Unknown,0,2014-07-20 07:51:00<br />
4:51 AM,66.2,60.8,83,-9999,-9999.0,North,-9999.0,-,N/A,,Unknown,0,2014-07-20 08:51:00<br />
5:51 AM,68.0,59.0,73,-9999,-9999.0,North,-9999.0,-,N/A,,Unknown,0,2014-07-20 09:51:00<br />
6:51 AM,66.2,57.2,73,-9999,-9999.0,North,-9999.0,-,N/A,,Unknown,0,2014-07-20 10:51:00<br />
7:51 AM,66.2,57.2,73,-9999,-9999.0,North,-9999.0,-,N/A,,Unknown,0,2014-07-20 11:51:00<br />
8:51 AM,69.8,57.2,64,-9999,-9999.0,North,-9999.0,-,N/A,,Unknown,0,2014-07-20 12:51:00<br />
9:51 AM,69.8,60.8,73,-9999,-9999.0,North,-9999.0,-,N/A,,Unknown,0,2014-07-20 13:51:00<br />
10:51 AM,73.4,60.8,65,-9999,-9999.0,North,-9999.0,-,N/A,,Unknown,0,2014-07-20 14:51:00<br />
11:51 AM,75.2,62.6,65,-9999,-9999.0,North,-9999.0,-,N/A,,Unknown,0,2014-07-20 15:51:00<br />
12:51 PM,78.1,62.1,58,30.15,10.0,ENE,5.8,-,N/A,,Partly Cloudy,60,2014-07-20 16:51:00<br />
1:51 PM,78.1,62.1,58,30.13,10.0,North,-9999.0,-,N/A,,Clear,0,2014-07-20 17:51:00<br />
2:51 PM,78.1,61.0,56,30.12,10.0,ENE,3.5,-,N/A,,Partly Cloudy,70,2014-07-20 18:51:00<br />
3:51 PM,78.1,61.0,56,30.11,10.0,ENE,9.2,-,N/A,,Clear,60,2014-07-20 19:51:00<br />
4:51 PM,75.9,55.9,50,30.11,10.0,ESE,9.2,-,N/A,,Clear,110,2014-07-20 20:51:00<br />
5:51 PM,75.0,55.9,51,30.11,10.0,ESE,5.8,-,N/A,,Clear,110,2014-07-20 21:51:00<br />
6:51 PM,73.9,54.0,50,30.12,10.0,ENE,5.8,-,N/A,,Clear,70,2014-07-20 22:51:00<br />
7:51 PM,73.9,53.1,48,30.13,10.0,Variable,4.6,-,N/A,,Clear,0,2014-07-20 23:51:00<br />
8:51 PM,72.0,53.1,51,30.13,10.0,ENE,3.5,-,N/A,,Clear,60,2014-07-21 00:51:00<br />
9:51 PM,71.1,59.0,66,30.14,10.0,Calm,Calm,-,N/A,,Clear,0,2014-07-21 01:51:00<br />
10:51 PM,70.0,61.0,73,30.14,10.0,Calm,Calm,-,N/A,,Clear,0,2014-07-21 02:51:00<br />
11:51 PM,69.1,61.0,75,30.14,10.0,Calm,Calm,-,N/A,,Clear,0,2014-07-21 03:51:00<br />
12:51 AM,69.1,62.1,78,30.14,9.0,Calm,Calm,-,N/A,,Clear,0,2014-07-21 04:51:00<br />
1:51 AM,69.1,62.1,78,30.14,10.0,Calm,Calm,-,N/A,,Clear,0,2014-07-21 05:51:00<br />
2:51 AM,68.0,62.1,81,30.14,10.0,Calm,Calm,-,N/A,,Clear,0,2014-07-21 06:51:00<br />
3:51 AM,68.0,61.0,78,30.14,10.0,NW,3.5,-,N/A,,Clear,310,2014-07-21 07:51:00<br />
4:51 AM,66.9,61.0,81,30.17,10.0,WNW,3.5,-,N/A,,Clear,290,2014-07-21 08:51:00<br />
5:51 AM,68.0,60.1,76,30.18,10.0,Calm,Calm,-,N/A,,Partly Cloudy,0,2014-07-21 09:51:00<br />
6:51 AM,68.0,60.1,76,30.19,10.0,Calm,Calm,-,N/A,,Mostly Cloudy,0,2014-07-21 10:51:00<br />
7:01 AM,68.0,60.1,76,30.22,9.0,Calm,Calm,-,N/A,,Scattered Clouds,0,2014-07-21 11:01:00<br />
7:51 AM,69.1,60.1,73,30.20,10.0,Calm,Calm,-,N/A,,Clear,0,2014-07-21 11:51:00<br />
8:51 AM,71.1,60.1,68,30.20,10.0,WNW,4.6,-,N/A,,Clear,290,2014-07-21 12:51:00<br />
9:51 AM,73.9,60.1,62,30.20,10.0,NNE,4.6,-,N/A,,Clear,30,2014-07-21 13:51:00<br />
10:51 AM,75.9,60.1,58,30.20,10.0,NE,4.6,-,N/A,,Clear,50,2014-07-21 14:51:00<br />
11:51 AM,79.0,60.1,52,30.19,10.0,NW,3.5,-,N/A,,Clear,310,2014-07-21 15:51:00<br />
12:51 PM,81.0,59.0,47,30.18,10.0,Calm,Calm,-,N/A,,Partly Cloudy,0,2014-07-21 16:51:00<br />
1:51 PM,82.9,62.1,49,30.17,10.0,Calm,Calm,-,N/A,,Clear,0,2014-07-21 17:51:00<br />
2:51 PM,82.9,57.9,42,30.15,10.0,NE,3.5,-,N/A,,Clear,50,2014-07-21 18:51:00<br />
3:51 PM,84.9,57.0,38,30.14,10.0,NNE,4.6,-,N/A,,Clear,30,2014-07-21 19:51:00<br />
4:51 PM,81.0,62.1,52,30.13,9.0,Variable,3.5,-,N/A,,Clear,0,2014-07-21 20:51:00<br />
5:51 PM,79.0,62.1,56,30.14,9.0,Calm,Calm,-,N/A,,Overcast,0,2014-07-21 21:51:00<br />
6:51 PM,78.1,62.1,58,30.16,9.0,North,-9999.0,-,N/A,,Overcast,0,2014-07-21 22:51:00<br />
7:51 PM,75.9,62.1,62,30.16,10.0,Variable,3.5,-,N/A,,Clear,0,2014-07-21 23:51:00<br />
8:51 PM,73.9,63.0,68,30.16,10.0,Calm,Calm,-,N/A,,Clear,0,2014-07-22 00:51:00<br />
9:51 PM,73.9,61.0,64,30.17,10.0,Calm,Calm,-,N/A,,Clear,0,2014-07-22 01:51:00<br />
10:51 PM,73.9,61.0,64,30.17,10.0,Calm,Calm,-,N/A,,Clear,0,2014-07-22 02:51:00<br />
11:51 PM,73.0,62.1,68,30.17,10.0,Calm,Calm,-,N/A,,Clear,0,2014-07-22 03:51:00<br />
12:51 AM,72.0,61.0,68,30.16,10.0,Variable,3.5,-,N/A,,Clear,0,2014-07-22 04:51:00<br />
1:51 AM,72.0,61.0,68,30.17,10.0,WSW,6.9,-,N/A,,Clear,250,2014-07-22 05:51:00<br />
2:51 AM,72.0,59.0,64,30.16,10.0,Variable,4.6,-,N/A,,Clear,0,2014-07-22 06:51:00<br />
3:51 AM,72.0,60.1,66,30.16,10.0,Calm,Calm,-,N/A,,Clear,0,2014-07-22 07:51:00<br />
4:51 AM,71.1,60.1,68,30.16,10.0,West,3.5,-,N/A,,Clear,270,2014-07-22 08:51:00<br />
5:51 AM,71.1,60.1,68,30.17,10.0,Variable,4.6,-,N/A,,Clear,0,2014-07-22 09:51:00<br />
6:51 AM,71.1,61.0,70,30.18,10.0,Variable,3.5,-,N/A,,Clear,0,2014-07-22 10:51:00<br />
7:51 AM,73.9,63.0,68,30.18,10.0,Calm,Calm,-,N/A,,Clear,0,2014-07-22 11:51:00<br />
8:51 AM,75.9,64.0,67,30.17,9.0,Calm,Calm,-,N/A,,Clear,0,2014-07-22 12:51:00<br />
9:51 AM,78.1,64.0,62,30.16,9.0,Calm,Calm,-,N/A,,Clear,0,2014-07-22 13:51:00<br />
10:51 AM,80.1,66.0,62,30.15,9.0,Variable,3.5,-,N/A,,Clear,0,2014-07-22 14:51:00<br />
11:51 AM,82.9,66.0,56,30.14,10.0,Variable,5.8,-,N/A,,Partly Cloudy,0,2014-07-22 15:51:00<br />
12:51 PM,84.0,64.9,53,30.12,10.0,Variable,4.6,-,N/A,,Mostly Cloudy,0,2014-07-22 16:51:00<br />
1:51 PM,84.0,66.9,56,30.12,10.0,Calm,Calm,-,N/A,,Scattered Clouds,0,2014-07-22 17:51:00<br />
2:51 PM,84.9,66.9,55,30.11,10.0,North,-9999.0,-,N/A,,Clear,0,2014-07-22 18:51:00<br />
3:51 PM,84.0,66.9,56,30.08,10.0,Variable,4.6,-,N/A,,Partly Cloudy,0,2014-07-22 19:51:00<br />
4:51 PM,82.9,66.9,58,30.07,10.0,South,6.9,-,N/A,,Partly Cloudy,170,2014-07-22 20:51:00<br />
5:51 PM,81.0,66.0,60,30.06,10.0,Calm,Calm,-,N/A,,Partly Cloudy,0,2014-07-22 21:51:00<br />
6:51 PM,81.0,66.0,60,30.06,10.0,South,4.6,-,N/A,,Partly Cloudy,170,2014-07-22 22:51:00<br />
7:51 PM,80.1,66.0,62,30.06,10.0,South,4.6,-,N/A,,Clear,170,2014-07-22 23:51:00<br />
8:51 PM,79.0,66.0,64,30.06,10.0,Variable,4.6,-,N/A,,Clear,0,2014-07-23 00:51:00<br />
9:51 PM,78.1,66.0,66,30.06,10.0,Variable,4.6,-,N/A,,Clear,0,2014-07-23 01:51:00<br />
10:51 PM,78.1,64.0,62,30.06,10.0,Variable,4.6,-,N/A,,Clear,0,2014-07-23 02:51:00<br />
11:51 PM,77.0,63.0,62,30.05,10.0,SW,6.9,18.4,N/A,,Clear,230,2014-07-23 03:51:00<br />
12:51 AM,75.9,63.0,64,30.03,10.0,Variable,5.8,-,N/A,,Clear,0,2014-07-23 04:51:00<br />
1:51 AM,75.9,62.1,62,30.02,10.0,WSW,4.6,-,N/A,,Clear,240,2014-07-23 05:51:00<br />
2:51 AM,75.0,62.1,64,30.01,10.0,Variable,4.6,-,N/A,,Clear,0,2014-07-23 06:51:00<br />
3:51 AM,73.9,62.1,66,30.00,10.0,West,6.9,18.4,N/A,,Clear,260,2014-07-23 07:51:00<br />
4:51 AM,73.0,63.0,71,29.99,10.0,Variable,4.6,-,N/A,,Partly Cloudy,0,2014-07-23 08:51:00<br />
5:43 AM,73.0,62.1,68,30.00,10.0,WSW,6.9,-,N/A,,Partly Cloudy,240,2014-07-23 09:43:00<br />
5:51 AM,73.0,63.0,71,29.97,10.0,Variable,3.5,-,N/A,,Partly Cloudy,0,2014-07-23 09:51:00<br />
6:51 AM,73.0,63.0,71,29.98,10.0,Variable,3.5,-,N/A,,Partly Cloudy,0,2014-07-23 10:51:00<br />
7:51 AM,75.0,64.9,71,29.99,10.0,Variable,3.5,-,N/A,,Clear,0,2014-07-23 11:51:00<br />
8:51 AM,77.0,66.9,71,29.98,10.0,Variable,5.8,-,N/A,,Scattered Clouds,0,2014-07-23 12:51:00<br />
9:51 AM,79.0,66.9,66,29.96,10.0,Variable,6.9,-,N/A,,Clear,0,2014-07-23 13:51:00<br />
10:51 AM,82.0,69.1,65,29.94,10.0,Variable,6.9,-,N/A,,Clear,0,2014-07-23 14:51:00<br />
11:51 AM,84.9,71.1,63,29.91,9.0,Variable,5.8,-,N/A,,Clear,0,2014-07-23 15:51:00<br />
12:51 PM,86.0,71.1,61,29.88,9.0,Variable,5.8,-,N/A,,Partly Cloudy,0,2014-07-23 16:51:00<br />
1:51 PM,84.9,72.0,65,29.87,9.0,SW,6.9,-,N/A,,Mostly Cloudy,220,2014-07-23 17:51:00<br />
2:51 PM,84.9,71.1,63,29.85,10.0,Variable,3.5,18.4,N/A,,Mostly Cloudy,0,2014-07-23 18:51:00<br />
3:51 PM,86.0,72.0,63,29.82,10.0,Variable,5.8,-,N/A,,Mostly Cloudy,0,2014-07-23 19:51:00<br />
4:51 PM,84.9,72.0,65,29.80,10.0,North,-9999.0,-,N/A,,Mostly Cloudy,0,2014-07-23 20:51:00<br />
5:51 PM,84.9,72.0,65,29.78,10.0,North,-9999.0,-,N/A,,Mostly Cloudy,0,2014-07-23 21:51:00<br />
6:51 PM,84.0,71.1,65,29.77,9.0,Variable,4.6,-,N/A,,Partly Cloudy,0,2014-07-23 22:51:00<br />
7:51 PM,86.0,70.0,59,29.78,10.0,WSW,8.1,-,N/A,,Mostly Cloudy,240,2014-07-23 23:51:00<br />
8:51 PM,75.9,70.0,82,29.83,1.0,Variable,4.6,25.3,0.08,Rain,Heavy Rain,0,2014-07-24 00:51:00<br />
9:09 PM,73.0,70.0,90,29.84,3.0,Variable,3.5,-,0.10,Rain,Light Rain,0,2014-07-24 01:09:00<br />
9:51 PM,73.9,71.1,91,29.84,5.0,West,5.8,-,0.10,Rain,Light Rain,280,2014-07-24 01:51:00<br />
10:51 PM,75.0,72.0,90,29.83,6.0,WSW,4.6,-,0.01,Rain,Light Rain,250,2014-07-24 02:51:00<br />
11:51 PM,73.9,72.0,93,29.82,4.0,Calm,Calm,-,0.00,,Mostly Cloudy,0,2014-07-24 03:51:00<br />
12:51 AM,75.0,69.1,82,29.80,10.0,Variable,3.5,-,N/A,,Clear,0,2014-07-24 04:51:00<br />
1:51 AM,73.9,68.0,82,29.81,10.0,Calm,Calm,-,N/A,,Mostly Cloudy,0,2014-07-24 05:51:00<br />
2:51 AM,73.9,66.9,79,29.81,10.0,Variable,3.5,-,N/A,,Scattered Clouds,0,2014-07-24 06:51:00<br />
3:51 AM,73.0,66.0,79,29.81,10.0,North,-9999.0,-,N/A,,Mostly Cloudy,0,2014-07-24 07:51:00<br />
4:51 AM,73.0,64.0,73,29.82,10.0,North,-9999.0,-,N/A,,Overcast,0,2014-07-24 08:51:00<br />
5:51 AM,73.0,63.0,71,29.82,10.0,Variable,3.5,-,N/A,,Overcast,0,2014-07-24 09:51:00<br />
6:51 AM,72.0,64.0,76,29.84,10.0,Variable,4.6,-,N/A,,Mostly Cloudy,0,2014-07-24 10:51:00<br />
7:26 AM,72.0,64.0,76,29.87,10.0,Variable,4.6,-,N/A,,Mostly Cloudy,0,2014-07-24 11:26:00<br />
7:51 AM,72.0,64.9,78,29.85,10.0,Variable,3.5,-,N/A,,Scattered Clouds,0,2014-07-24 11:51:00<br />
8:51 AM,73.9,64.0,71,29.86,10.0,Variable,3.5,-,N/A,,Mostly Cloudy,0,2014-07-24 12:51:00<br />
9:18 AM,73.9,64.0,71,29.88,-9999.0,ENE,9.2,-,N/A,,Overcast,70,2014-07-24 13:18:00<br />
9:51 AM,73.9,63.0,68,29.86,-9999.0,ENE,5.8,-,N/A,,Overcast,60,2014-07-24 13:51:00<br />
10:46 AM,73.4,62.6,69,29.90,-9999.0,NNE,5.8,-,N/A,,Overcast,30,2014-07-24 14:46:00<br />
10:51 AM,73.9,63.0,68,29.87,-9999.0,Variable,3.5,-,N/A,,Overcast,0,2014-07-24 14:51:00<br />
11:51 AM,75.0,62.1,64,29.87,-9999.0,Variable,5.8,-,N/A,,Scattered Clouds,0,2014-07-24 15:51:00<br />
12:51 PM,75.9,61.0,60,29.87,-9999.0,Variable,6.9,-,N/A,,Scattered Clouds,0,2014-07-24 16:51:00<br />
1:51 PM,77.0,61.0,58,29.87,-9999.0,ENE,5.8,-,N/A,,Mostly Cloudy,60,2014-07-24 17:51:00<br />
2:51 PM,79.0,57.0,47,29.85,10.0,Variable,4.6,-,N/A,,Partly Cloudy,0,2014-07-24 18:51:00<br />
3:51 PM,79.0,59.0,50,29.85,10.0,ENE,8.1,-,N/A,,Partly Cloudy,70,2014-07-24 19:51:00<br />
4:51 PM,77.0,55.0,47,29.85,10.0,North,6.9,-,N/A,,Mostly Cloudy,10,2014-07-24 20:51:00<br />
5:51 PM,78.1,57.0,48,29.83,10.0,NE,9.2,-,N/A,,Mostly Cloudy,50,2014-07-24 21:51:00<br />
6:51 PM,75.9,57.9,54,29.85,10.0,NNE,6.9,-,N/A,,Mostly Cloudy,30,2014-07-24 22:51:00<br />
7:51 PM,75.9,55.9,50,29.86,10.0,Variable,5.8,-,N/A,,Clear,0,2014-07-24 23:51:00<br />
8:51 PM,77.0,55.0,47,29.88,10.0,NNE,4.6,-,N/A,,Mostly Cloudy,20,2014-07-25 00:51:00<br />
9:51 PM,75.0,55.0,50,29.89,10.0,Variable,3.5,-,N/A,,Mostly Cloudy,0,2014-07-25 01:51:00<br />
10:51 PM,73.9,55.9,53,29.91,10.0,Calm,Calm,-,N/A,,Partly Cloudy,0,2014-07-25 02:51:00<br />
11:51 PM,73.0,52.0,48,29.91,10.0,North,-9999.0,-,N/A,,Clear,0,2014-07-25 03:51:00<br />
12:51 AM,70.0,52.0,53,29.93,10.0,Variable,4.6,-,N/A,,Clear,0,2014-07-25 04:51:00<br />
1:51 AM,69.1,52.0,54,29.94,10.0,Calm,Calm,-,N/A,,Mostly Cloudy,0,2014-07-25 05:51:00<br />
2:51 AM,69.1,53.1,57,29.95,10.0,Variable,3.5,-,N/A,,Overcast,0,2014-07-25 06:51:00<br />
3:51 AM,66.9,54.0,63,29.95,10.0,Calm,Calm,-,N/A,,Partly Cloudy,0,2014-07-25 07:51:00<br />
4:51 AM,66.9,53.1,61,29.96,10.0,Variable,5.8,-,N/A,,Clear,0,2014-07-25 08:51:00<br />
5:51 AM,66.9,53.1,61,29.97,10.0,Variable,6.9,-,N/A,,Partly Cloudy,0,2014-07-25 09:51:00<br />
6:18 AM,66.9,52.0,59,30.00,10.0,NE,6.9,-,N/A,,Partly Cloudy,50,2014-07-25 10:18:00<br />
6:51 AM,66.9,53.1,61,29.99,10.0,Variable,5.8,-,N/A,,Clear,0,2014-07-25 10:51:00<br />
7:51 AM,69.1,53.1,57,30.01,10.0,Variable,5.8,-,N/A,,Clear,0,2014-07-25 11:51:00<br />
8:51 AM,70.0,55.0,59,30.03,10.0,North,9.2,-,N/A,,Clear,360,2014-07-25 12:51:00<br />
9:51 AM,72.0,52.0,49,30.03,10.0,NE,8.1,-,N/A,,Clear,50,2014-07-25 13:51:00<br />
10:51 AM,73.9,52.0,46,30.02,10.0,Variable,3.5,-,N/A,,Clear,0,2014-07-25 14:51:00<br />
11:51 AM,78.1,54.0,43,30.02,10.0,East,3.5,-,N/A,,Clear,80,2014-07-25 15:51:00<br />
12:51 PM,78.1,54.0,43,30.00,10.0,Calm,Calm,-,N/A,,Clear,0,2014-07-25 16:51:00<br />
1:51 PM,81.0,54.0,39,29.99,10.0,Variable,4.6,-,N/A,,Clear,0,2014-07-25 17:51:00<br />
2:51 PM,80.6,50.0,34,-9999,-9999.0,North,-9999.0,-,N/A,,Unknown,0,2014-07-25 18:51:00<br />
3:51 PM,80.6,51.8,37,-9999,-9999.0,North,-9999.0,-,N/A,,Unknown,0,2014-07-25 19:51:00<br />
4:51 PM,78.8,55.4,44,-9999,-9999.0,North,-9999.0,-,N/A,,Unknown,0,2014-07-25 20:51:00<br />
5:51 PM,78.8,51.8,39,-9999,-9999.0,North,-9999.0,-,N/A,,Unknown,0,2014-07-25 21:51:00<br />
6:51 PM,77.0,55.4,47,-9999,-9999.0,North,-9999.0,-,N/A,,Unknown,0,2014-07-25 22:51:00<br />
7:53 PM,75.9,55.9,50,29.99,10.0,WSW,3.5,-,N/A,,Unknown,240,2014-07-25 23:53:00<br />
8:51 PM,75.0,57.0,53,30.01,10.0,Variable,5.8,17.3,N/A,,Scattered Clouds,0,2014-07-26 00:51:00<br />
9:51 PM,73.0,57.9,59,30.02,10.0,WSW,4.6,-,N/A,,Clear,240,2014-07-26 01:51:00<br />
10:51 PM,73.0,57.9,59,30.01,10.0,Variable,6.9,-,N/A,,Clear,0,2014-07-26 02:51:00<br />
11:51 PM,73.0,59.0,61,30.00,10.0,Variable,3.5,-,N/A,,Clear,0,2014-07-26 03:51:00<br />
12:51 AM,72.0,60.1,66,30.00,10.0,WSW,4.6,-,N/A,,Clear,240,2014-07-26 04:51:00<br />
1:51 AM,71.1,61.0,70,29.99,10.0,WSW,4.6,-,N/A,,Clear,250,2014-07-26 05:51:00<br />
2:51 AM,71.1,60.1,68,29.99,10.0,Variable,4.6,-,N/A,,Clear,0,2014-07-26 06:51:00<br />
3:51 AM,70.0,59.0,68,29.99,10.0,WSW,4.6,-,N/A,,Clear,250,2014-07-26 07:51:00<br />
4:51 AM,70.0,57.9,65,29.99,10.0,Variable,3.5,-,N/A,,Clear,0,2014-07-26 08:51:00<br />
5:51 AM,70.0,57.0,63,30.00,10.0,West,5.8,-,N/A,,Clear,260,2014-07-26 09:51:00<br />
6:51 AM,70.0,55.9,61,30.00,10.0,West,3.5,-,N/A,,Clear,260,2014-07-26 10:51:00<br />
7:51 AM,71.1,55.9,59,30.01,10.0,Variable,3.5,-,N/A,,Clear,0,2014-07-26 11:51:00<br />
8:51 AM,73.9,55.9,53,30.00,10.0,Variable,3.5,-,N/A,,Clear,0,2014-07-26 12:51:00<br />
9:51 AM,75.0,57.9,55,29.99,10.0,WSW,4.6,-,N/A,,Partly Cloudy,250,2014-07-26 13:51:00<br />
2:51 PM,77.0,63.0,62,29.94,10.0,Variable,3.5,-,N/A,,Overcast,0,2014-07-26 18:51:00<br />
3:51 PM,78.1,62.1,58,29.93,10.0,WSW,4.6,-,N/A,,Mostly Cloudy,240,2014-07-26 19:51:00<br />
4:51 PM,75.9,63.0,64,29.93,10.0,Variable,5.8,-,N/A,,Mostly Cloudy,0,2014-07-26 20:51:00<br />
5:51 PM,75.9,64.0,67,29.91,10.0,Variable,4.6,-,N/A,,Mostly Cloudy,0,2014-07-26 21:51:00<br />
6:28 PM,78.1,64.9,64,29.93,10.0,North,-9999.0,-,N/A,,Mostly Cloudy,0,2014-07-26 22:28:00<br />
6:43 PM,77.0,64.9,66,29.93,10.0,Calm,Calm,-,N/A,,Mostly Cloudy,0,2014-07-26 22:43:00<br />
6:51 PM,77.0,64.9,66,29.91,10.0,Variable,5.8,-,N/A,,Scattered Clouds,0,2014-07-26 22:51:00<br />
7:51 PM,75.9,63.0,64,29.90,10.0,Variable,3.5,-,N/A,,Clear,0,2014-07-26 23:51:00<br />
8:51 PM,77.0,64.0,64,29.91,10.0,Calm,Calm,-,N/A,,Scattered Clouds,0,2014-07-27 00:51:00<br />
8:59 PM,75.9,64.0,67,29.93,10.0,Variable,3.5,-,N/A,,Mostly Cloudy,0,2014-07-27 00:59:00<br />
9:40 PM,75.0,64.9,71,29.94,10.0,SSW,3.5,-,N/A,,Scattered Clouds,200,2014-07-27 01:40:00<br />
9:51 PM,75.0,64.9,71,29.91,10.0,SSW,4.6,-,N/A,,Partly Cloudy,210,2014-07-27 01:51:00<br />
10:51 PM,73.9,64.9,73,29.91,10.0,Variable,3.5,-,N/A,,Partly Cloudy,0,2014-07-27 02:51:00<br />
11:51 PM,73.9,66.0,76,29.91,10.0,WSW,8.1,-,N/A,,Partly Cloudy,240,2014-07-27 03:51:00<br />
12:51 AM,73.9,66.9,79,29.89,10.0,Variable,4.6,-,N/A,,Clear,0,2014-07-27 04:51:00<br />
1:51 AM,73.0,66.9,81,29.87,10.0,Calm,Calm,-,N/A,,Clear,0,2014-07-27 05:51:00<br />
2:51 AM,72.0,66.9,84,29.84,9.0,Calm,Calm,-,N/A,,Clear,0,2014-07-27 06:51:00<br />
3:51 AM,72.0,66.9,84,29.84,9.0,WSW,4.6,-,N/A,,Clear,240,2014-07-27 07:51:00<br />
4:40 AM,72.0,66.9,84,29.86,9.0,Calm,Calm,-,N/A,,Mostly Cloudy,0,2014-07-27 08:40:00<br />
4:48 AM,71.6,66.2,83,29.86,9.0,SW,4.6,-,N/A,,Scattered Clouds,230,2014-07-27 08:48:00<br />
4:51 AM,72.0,66.9,84,29.83,9.0,Variable,5.8,-,N/A,,Scattered Clouds,0,2014-07-27 08:51:00<br />
5:51 AM,73.0,66.9,81,29.83,10.0,SW,3.5,-,N/A,,Mostly Cloudy,230,2014-07-27 09:51:00<br />
6:51 AM,72.0,69.1,91,29.81,6.0,Calm,Calm,-,0.01,,Mostly Cloudy,0,2014-07-27 10:51:00<br />
7:51 AM,73.0,69.1,87,29.80,8.0,Variable,4.6,-,N/A,,Overcast,0,2014-07-27 11:51:00<br />
8:51 AM,73.9,68.0,82,29.78,9.0,Variable,3.5,-,N/A,,Mostly Cloudy,0,2014-07-27 12:51:00<br />
9:51 AM,75.9,68.0,76,29.77,9.0,Variable,5.8,-,N/A,,Overcast,0,2014-07-27 13:51:00<br />
10:51 AM,77.0,70.0,79,29.77,8.0,Variable,3.5,-,N/A,,Overcast,0,2014-07-27 14:51:00<br />
11:51 AM,78.1,68.0,71,29.75,8.0,Variable,3.5,-,N/A,,Mostly Cloudy,0,2014-07-27 15:51:00<br />
12:51 PM,79.0,68.0,69,29.74,9.0,Variable,5.8,-,N/A,,Overcast,0,2014-07-27 16:51:00<br />
1:51 PM,80.6,69.8,70,29.75,8.0,Calm,Calm,-,N/A,,Mostly Cloudy,0,2014-07-27 17:51:00<br />
2:51 PM,84.0,68.0,58,29.72,9.0,North,-9999.0,-,N/A,,Clear,0,2014-07-27 18:51:00<br />
3:51 PM,82.0,66.9,60,29.71,9.0,Variable,5.8,-,N/A,,Scattered Clouds,0,2014-07-27 19:51:00<br />
4:51 PM,82.9,66.9,58,29.69,9.0,Variable,4.6,-,N/A,,Partly Cloudy,0,2014-07-27 20:51:00<br />
5:51 PM,84.9,64.0,49,29.68,10.0,WSW,8.1,-,N/A,,Partly Cloudy,240,2014-07-27 21:51:00<br />
6:51 PM,84.9,64.0,49,29.67,10.0,Variable,3.5,-,N/A,,Partly Cloudy,0,2014-07-27 22:51:00<br />
7:51 PM,82.9,62.1,49,29.67,10.0,Calm,Calm,-,N/A,,Clear,0,2014-07-27 23:51:00<br />
8:51 PM,82.9,62.1,49,29.67,10.0,Calm,Calm,-,N/A,,Clear,0,2014-07-28 00:51:00<br />
9:51 PM,81.0,68.0,65,29.68,10.0,Calm,Calm,-,N/A,,Clear,0,2014-07-28 01:51:00<br />
10:51 PM,80.1,70.0,71,29.68,10.0,Calm,Calm,-,N/A,,Clear,0,2014-07-28 02:51:00<br />
11:51 PM,78.1,71.1,79,29.64,9.0,West,4.6,-,0.00,Rain,Light Rain,260,2014-07-28 03:51:00<br />
12:51 AM,75.9,72.0,87,29.65,8.0,SW,8.1,-,0.01,,Mostly Cloudy,230,2014-07-28 04:51:00<br />
1:37 AM,75.0,72.0,90,29.65,2.0,Variable,4.6,-,0.06,Rain,Rain,0,2014-07-28 05:37:00<br />
1:51 AM,75.0,72.0,90,29.61,2.0,Variable,3.5,-,0.11,Rain,Rain,0,2014-07-28 05:51:00<br />
2:18 AM,73.9,72.0,93,29.60,3.0,SSE,6.9,-,0.05,Rain,Light Rain,160,2014-07-28 06:18:00<br />
2:36 AM,73.9,72.0,93,29.59,2.5,Calm,Calm,-,0.05,,Scattered Clouds,0,2014-07-28 06:36:00<br />
2:43 AM,73.9,72.0,93,29.59,3.0,South,3.5,-,0.05,,Scattered Clouds,180,2014-07-28 06:43:00<br />
2:51 AM,73.9,72.0,93,29.57,3.0,Variable,3.5,-,0.05,,Mostly Cloudy,0,2014-07-28 06:51:00<br />
3:02 AM,73.9,72.0,93,29.60,3.0,Variable,3.5,-,N/A,,Mostly Cloudy,0,2014-07-28 07:02:00<br />
3:20 AM,73.9,72.0,93,29.61,3.0,Variable,4.6,-,0.00,Rain,Light Rain,0,2014-07-28 07:20:00<br />
3:36 AM,71.1,69.1,93,29.62,4.0,SSW,9.2,20.7,0.01,Rain,Light Rain,200,2014-07-28 07:36:00<br />
3:51 AM,70.0,66.9,90,29.57,6.0,Variable,5.8,-,0.02,Rain,Light Rain,0,2014-07-28 07:51:00<br />
4:51 AM,69.1,66.0,90,29.54,10.0,WSW,8.1,-,0.01,,Scattered Clouds,250,2014-07-28 08:51:00<br />
5:51 AM,69.1,66.0,90,29.55,10.0,Calm,Calm,-,N/A,,Clear,0,2014-07-28 09:51:00<br />
6:24 AM,70.0,66.9,90,29.58,10.0,South,5.8,-,N/A,,Mostly Cloudy,170,2014-07-28 10:24:00<br />
6:51 AM,70.0,66.9,90,29.56,10.0,Variable,5.8,-,N/A,,Overcast,0,2014-07-28 10:51:00<br />
7:16 AM,70.0,66.9,90,29.59,10.0,Variable,6.9,-,N/A,,Overcast,0,2014-07-28 11:16:00<br />
7:51 AM,71.1,66.9,87,29.55,10.0,Variable,3.5,-,N/A,,Overcast,0,2014-07-28 11:51:00<br />
8:41 AM,72.0,66.9,84,29.59,10.0,SW,5.8,-,N/A,,Overcast,230,2014-07-28 12:41:00<br />
8:51 AM,72.0,66.9,84,29.56,10.0,North,-9999.0,-,N/A,,Overcast,0,2014-07-28 12:51:00<br />
9:32 AM,73.0,66.9,81,29.58,10.0,WSW,3.5,-,N/A,,Mostly Cloudy,250,2014-07-28 13:32:00<br />
9:51 AM,73.0,66.9,81,29.55,10.0,North,-9999.0,-,N/A,,Overcast,0,2014-07-28 13:51:00<br />
10:51 AM,73.0,66.0,79,29.55,10.0,WSW,6.9,-,N/A,,Overcast,250,2014-07-28 14:51:00<br />
11:33 AM,75.9,66.0,71,29.58,10.0,West,3.5,17.3,N/A,,Overcast,270,2014-07-28 15:33:00<br />
11:51 AM,75.9,64.9,69,29.55,10.0,West,8.1,-,N/A,,Mostly Cloudy,270,2014-07-28 15:51:00<br />
12:51 PM,78.1,63.0,60,29.53,10.0,WSW,9.2,-,N/A,,Mostly Cloudy,250,2014-07-28 16:51:00<br />
1:51 PM,79.0,62.1,56,29.52,10.0,Variable,5.8,19.6,N/A,,Partly Cloudy,0,2014-07-28 17:51:00<br />
2:51 PM,79.0,61.0,54,29.52,10.0,Variable,4.6,-,N/A,,Mostly Cloudy,0,2014-07-28 18:51:00<br />
3:51 PM,79.0,62.1,56,29.53,10.0,North,-9999.0,-,N/A,,Mostly Cloudy,0,2014-07-28 19:51:00<br />
4:51 PM,80.1,59.0,48,29.54,10.0,West,10.4,20.7,N/A,,Partly Cloudy,270,2014-07-28 20:51:00<br />
5:51 PM,80.1,57.9,47,29.55,10.0,WSW,9.2,18.4,N/A,,Partly Cloudy,250,2014-07-28 21:51:00<br />
6:51 PM,80.1,57.0,45,29.57,10.0,WNW,11.5,28.8,N/A,,Mostly Cloudy,290,2014-07-28 22:51:00<br />
7:51 PM,73.9,57.0,55,29.60,10.0,West,9.2,16.1,N/A,,Partly Cloudy,280,2014-07-28 23:51:00<br />
8:51 PM,72.0,57.9,61,29.63,10.0,West,13.8,23.0,N/A,,Clear,280,2014-07-29 00:51:00<br />
9:51 PM,71.1,57.9,63,29.67,10.0,West,6.9,-,N/A,,Scattered Clouds,280,2014-07-29 01:51:00<br />
10:51 PM,70.0,57.0,63,29.70,10.0,West,9.2,-,N/A,,Clear,280,2014-07-29 02:51:00<br />
11:51 PM,69.1,55.9,63,29.70,10.0,Variable,5.8,-,N/A,,Partly Cloudy,0,2014-07-29 03:51:00<br />
12:51 AM,68.0,55.0,63,29.71,10.0,Variable,5.8,-,N/A,,Partly Cloudy,0,2014-07-29 04:51:00<br />
1:51 AM,66.9,55.0,66,29.74,10.0,Variable,5.8,-,N/A,,Clear,0,2014-07-29 05:51:00<br />
2:51 AM,66.0,53.1,63,29.75,10.0,WNW,8.1,17.3,N/A,,Clear,300,2014-07-29 06:51:00<br />
3:51 AM,64.9,53.1,65,29.77,10.0,NW,8.1,-,N/A,,Clear,310,2014-07-29 07:51:00<br />
4:51 AM,64.9,52.0,63,29.78,10.0,WNW,9.2,-,N/A,,Clear,300,2014-07-29 08:51:00<br />
5:51 AM,64.0,53.1,67,29.80,10.0,WNW,3.5,-,N/A,,Clear,290,2014-07-29 09:51:00<br />
6:51 AM,64.0,52.0,65,29.83,10.0,Variable,4.6,-,N/A,,Clear,0,2014-07-29 10:51:00<br />
7:51 AM,64.0,53.1,67,29.84,10.0,Variable,3.5,-,N/A,,Clear,0,2014-07-29 11:51:00<br />
8:51 AM,66.0,53.1,63,29.86,10.0,WNW,6.9,-,N/A,,Scattered Clouds,290,2014-07-29 12:51:00<br />
9:51 AM,68.0,51.1,55,29.86,10.0,Variable,3.5,-,N/A,,Clear,0,2014-07-29 13:51:00<br />
10:51 AM,71.1,53.1,53,29.87,10.0,Variable,5.8,-,N/A,,Clear,0,2014-07-29 14:51:00<br />
11:51 AM,72.0,50.0,46,29.86,10.0,Variable,6.9,-,N/A,,Clear,0,2014-07-29 15:51:00<br />
12:51 PM,72.0,50.0,46,29.87,10.0,Calm,Calm,-,N/A,,Mostly Cloudy,0,2014-07-29 16:51:00<br />
1:51 PM,72.0,52.0,49,29.87,10.0,WNW,10.4,17.3,N/A,,Scattered Clouds,290,2014-07-29 17:51:00<br />
2:51 PM,75.9,51.1,42,29.88,10.0,West,8.1,-,N/A,,Partly Cloudy,280,2014-07-29 18:51:00<br />
3:51 PM,75.9,50.0,40,29.89,10.0,Variable,4.6,-,N/A,,Scattered Clouds,0,2014-07-29 19:51:00<br />
4:51 PM,73.9,48.9,41,29.90,10.0,North,-9999.0,-,N/A,,Mostly Cloudy,0,2014-07-29 20:51:00<br />
5:51 PM,73.9,48.9,41,29.91,10.0,Variable,4.6,-,N/A,,Scattered Clouds,0,2014-07-29 21:51:00<br />
6:51 PM,73.9,48.0,40,29.93,10.0,Calm,Calm,-,N/A,,Overcast,0,2014-07-29 22:51:00<br />
7:51 PM,72.0,48.0,43,29.94,10.0,Variable,4.6,-,N/A,,Overcast,0,2014-07-29 23:51:00<br />
8:51 PM,71.1,48.9,45,29.95,10.0,Variable,4.6,-,N/A,,Scattered Clouds,0,2014-07-30 00:51:00<br />
9:51 PM,70.0,50.0,49,29.97,10.0,Variable,3.5,-,N/A,,Scattered Clouds,0,2014-07-30 01:51:00<br />
10:51 PM,69.1,51.1,53,29.98,10.0,NW,4.6,-,N/A,,Clear,310,2014-07-30 02:51:00<br />
11:51 PM,66.9,52.0,59,29.98,10.0,Calm,Calm,-,N/A,,Scattered Clouds,0,2014-07-30 03:51:00<br />
12:51 AM,66.9,52.0,59,29.99,10.0,WNW,3.5,-,N/A,,Scattered Clouds,290,2014-07-30 04:51:00<br />
1:51 AM,66.0,51.1,59,29.98,10.0,Calm,Calm,-,N/A,,Mostly Cloudy,0,2014-07-30 05:51:00<br />
2:51 AM,66.0,52.0,60,29.97,10.0,Calm,Calm,-,N/A,,Overcast,0,2014-07-30 06:51:00<br />
3:51 AM,66.0,52.0,60,29.97,10.0,WNW,4.6,-,N/A,,Overcast,300,2014-07-30 07:51:00<br />
4:51 AM,64.0,53.1,67,29.99,10.0,Variable,4.6,-,N/A,,Clear,0,2014-07-30 08:51:00<br />
5:51 AM,63.0,53.1,70,29.99,10.0,Variable,6.9,-,N/A,,Clear,0,2014-07-30 09:51:00<br />
6:51 AM,63.0,53.1,70,30.02,10.0,Calm,Calm,-,N/A,,Clear,0,2014-07-30 10:51:00<br />
7:51 AM,64.9,55.0,70,30.03,10.0,Variable,3.5,-,N/A,,Clear,0,2014-07-30 11:51:00<br />
8:51 AM,68.0,53.1,59,30.04,10.0,Variable,3.5,-,N/A,,Clear,0,2014-07-30 12:51:00<br />
9:51 AM,70.0,52.0,53,30.04,10.0,Calm,Calm,-,N/A,,Clear,0,2014-07-30 13:51:00<br />
10:51 AM,73.0,51.1,46,30.03,10.0,Variable,4.6,-,N/A,,Clear,0,2014-07-30 14:51:00<br />
11:51 AM,75.9,48.0,37,30.03,10.0,West,4.6,-,N/A,,Clear,280,2014-07-30 15:51:00<br />
12:51 PM,78.1,45.0,31,30.01,10.0,Variable,5.8,-,N/A,,Clear,0,2014-07-30 16:51:00<br />
1:51 PM,79.0,45.0,30,30.01,10.0,WNW,4.6,-,N/A,,Clear,300,2014-07-30 17:51:00<br />
2:51 PM,78.1,48.0,35,30.00,10.0,Variable,4.6,-,N/A,,Mostly Cloudy,0,2014-07-30 18:51:00<br />
3:51 PM,78.1,50.0,37,30.00,10.0,Calm,Calm,-,N/A,,Mostly Cloudy,0,2014-07-30 19:51:00<br />
4:51 PM,77.0,53.1,43,30.01,10.0,Variable,3.5,-,N/A,,Mostly Cloudy,0,2014-07-30 20:51:00<br />
5:51 PM,78.1,51.1,39,30.00,10.0,West,4.6,-,N/A,,Mostly Cloudy,260,2014-07-30 21:51:00<br />
6:51 PM,75.0,54.0,48,30.01,10.0,Variable,3.5,-,N/A,,Clear,0,2014-07-30 22:51:00<br />
7:51 PM,73.0,55.0,53,30.02,10.0,Variable,3.5,-,N/A,,Clear,0,2014-07-30 23:51:00<br />
8:51 PM,72.0,55.0,55,30.04,10.0,Calm,Calm,-,N/A,,Clear,0,2014-07-31 00:51:00<br />
9:51 PM,72.0,55.0,55,30.04,10.0,Calm,Calm,-,N/A,,Clear,0,2014-07-31 01:51:00<br />
10:51 PM,72.0,55.9,57,30.04,10.0,Variable,5.8,-,N/A,,Clear,0,2014-07-31 02:51:00<br />
11:51 PM,72.0,57.0,59,30.04,10.0,Calm,Calm,-,N/A,,Clear,0,2014-07-31 03:51:00<br />
12:51 AM,70.0,55.0,59,30.05,10.0,Calm,Calm,-,N/A,,Clear,0,2014-07-31 04:51:00<br />
1:51 AM,70.0,54.0,57,30.05,10.0,WSW,3.5,-,N/A,,Clear,250,2014-07-31 05:51:00<br />
2:51 AM,70.0,54.0,57,30.06,10.0,North,-9999.0,-,N/A,,Clear,0,2014-07-31 06:51:00<br />
3:51 AM,69.1,53.1,57,30.06,10.0,Calm,Calm,-,N/A,,Clear,0,2014-07-31 07:51:00<br />
4:51 AM,68.0,54.0,61,30.06,10.0,Calm,Calm,-,N/A,,Clear,0,2014-07-31 08:51:00<br />
5:51 AM,68.0,54.0,61,30.08,10.0,WSW,4.6,-,N/A,,Clear,240,2014-07-31 09:51:00<br />
6:37 AM,69.1,54.0,58,30.11,10.0,Variable,3.5,-,N/A,,Partly Cloudy,0,2014-07-31 10:37:00<br />
6:51 AM,69.1,54.0,58,30.09,10.0,Variable,3.5,-,N/A,,Clear,0,2014-07-31 10:51:00<br />
7:51 AM,70.0,55.9,61,30.10,10.0,Variable,3.5,-,N/A,,Partly Cloudy,0,2014-07-31 11:51:00<br />
8:51 AM,71.1,55.9,59,30.11,10.0,Variable,5.8,19.6,N/A,,Mostly Cloudy,0,2014-07-31 12:51:00<br />
9:51 AM,72.0,57.0,59,30.11,10.0,WSW,5.8,-,N/A,,Mostly Cloudy,240,2014-07-31 13:51:00<br />
10:51 AM,75.0,57.0,53,30.10,10.0,North,-9999.0,-,N/A,,Scattered Clouds,0,2014-07-31 14:51:00<br />
11:51 AM,78.1,57.9,50,30.09,10.0,Variable,5.8,-,N/A,,Clear,0,2014-07-31 15:51:00<br />
12:51 PM,79.0,60.1,52,30.09,10.0,North,-9999.0,-,N/A,,Mostly Cloudy,0,2014-07-31 16:51:00<br />
1:51 PM,81.0,59.0,47,30.08,10.0,Variable,5.8,-,N/A,,Mostly Cloudy,0,2014-07-31 17:51:00<br />
2:51 PM,81.0,60.1,49,30.08,9.0,North,-9999.0,-,N/A,,Mostly Cloudy,0,2014-07-31 18:51:00<br />
3:51 PM,75.9,61.0,60,30.09,9.0,Calm,Calm,-,N/A,,Mostly Cloudy,0,2014-07-31 19:51:00<br />
4:51 PM,78.1,63.0,60,30.08,9.0,Variable,3.5,-,N/A,,Mostly Cloudy,0,2014-07-31 20:51:00<br />
5:51 PM,79.0,62.1,56,30.08,9.0,Variable,3.5,-,N/A,,Mostly Cloudy,0,2014-07-31 21:51:00<br />
6:51 PM,77.0,63.0,62,30.09,9.0,North,-9999.0,-,N/A,,Mostly Cloudy,0,2014-07-31 22:51:00<br />
7:51 PM,75.9,62.1,62,30.10,9.0,Variable,3.5,-,N/A,,Mostly Cloudy,0,2014-07-31 23:51:00<br />
8:51 PM,75.0,64.0,69,30.12,9.0,Calm,Calm,-,N/A,,Scattered Clouds,0,2014-08-01 00:51:00<br />
9:51 PM,75.0,64.0,69,30.13,9.0,Calm,Calm,-,N/A,,Partly Cloudy,0,2014-08-01 01:51:00<br />
10:51 PM,75.0,64.0,69,30.13,9.0,South,4.6,-,N/A,,Partly Cloudy,180,2014-08-01 02:51:00<br />
11:51 PM,75.0,64.0,69,30.14,9.0,Variable,6.9,-,N/A,,Clear,0,2014-08-01 03:51:00<br />
